RecordNumber,County,District,School,lat,lon
1,ADAIR,PEAVINE,PEAVINE PUBLIC SCHOOL,35.813812,-94.6289306
2,ADAIR,MARYETTA,MARYETTA PUBLIC SCHOOL,35.81453,-94.6285553
3,ADAIR,ROCKY MOUNTAIN,ROCKY MOUNTAIN PUBLIC SCHOOL,35.7986941,-94.6232231
4,ADAIR,ZION,ZION PUBLIC SCHOOL,35.813812,-94.6289306
5,ADAIR,DAHLONEGAH,DAHLONEGAH PUBLIC SCHOOL,35.7481471,-94.6700531
6,ADAIR,GREASY,GREASY PUBLIC SCHOOL,35.7073567,-94.7579554
7,ADAIR,WATTS,WATTS ES,36.1101957,-94.5702166
8,ADAIR,WATTS,WATTS HS,36.1101957,-94.5702166
9,ADAIR,WESTVILLE,WESTVILLE ES,35.9919798,-94.5685308
10,ADAIR,WESTVILLE,WESTVILLE JHS,35.9919798,-94.5685308
11,ADAIR,WESTVILLE,WESTVILLE HS,35.9919798,-94.5685308
12,ADAIR,STILWELL,STILWELL ES,35.8150794,-94.6331816
13,ADAIR,STILWELL,STILWELL MS,35.8153684,-94.6332928
14,ADAIR,STILWELL,STILWELL HS,35.8085213,-94.644911
15,ADAIR,CAVE SPRINGS,CAVE SPRINGS ES,35.681032,-94.760477
16,ADAIR,CAVE SPRINGS,CAVE SPRINGS MS,35.681032,-94.760477
17,ADAIR,CAVE SPRINGS,CAVE SPRINGS HS,35.681032,-94.760477
18,ALFALFA,BURLINGTON,BURLINGTON ES,36.9000283,-98.4228526
19,ALFALFA,BURLINGTON,BURLINGTON HS,36.9000283,-98.4228526
20,ALFALFA,CHEROKEE,CHEROKEE ES,36.7517219,-98.348861
21,ALFALFA,CHEROKEE,CHEROKEE MS,36.7530347,-98.3527078
22,ALFALFA,CHEROKEE,CHEROKEE HS,36.7530347,-98.3527078
23,ALFALFA,TIMBERLAKE,TIMBERLAKE ES,36.6661416,-98.1811787
24,ALFALFA,TIMBERLAKE,TIMBERLAKE HS,36.5461432,-98.2700706
25,ATOKA,HARMONY,HARMONY PUBLIC SCHOOL,34.2646785,-96.0754681
26,ATOKA,LANE,LANE PUBLIC SCHOOL,34.30172,-95.9884072
27,ATOKA,STRINGTOWN,STRINGTOWN ES,34.4685673,-96.0525341
28,ATOKA,STRINGTOWN,STRINGTOWN HS,34.4685673,-96.0525341
29,ATOKA,ATOKA,ATOKA ES,34.3853336,-96.1239917
30,ATOKA,ATOKA,ATOKA ES,34.3853336,-96.1239917
31,ATOKA,ATOKA,ATOKA HS,34.3853336,-96.1239917
32,ATOKA,TUSHKA,TUSHKA ES,34.310159,-96.2761296
33,ATOKA,TUSHKA,TUSHKA HS,34.310159,-96.2761296
34,ATOKA,CANEY,CANEY ES,34.198142,-96.1739116
35,ATOKA,CANEY,CANEY HS,34.198142,-96.1739116
36,BEAVER,BEAVER,BEAVER ES,36.816399,-100.5187621
37,BEAVER,BEAVER,BEAVER HS,36.816399,-100.5187621
38,BEAVER,BALKO,BALKO ES,36.6174206,-100.7311006
39,BEAVER,BALKO,BALKO HS,36.6174206,-100.7311006
40,BEAVER,FORGAN,FORGAN ES,36.9062641,-100.535493
41,BEAVER,FORGAN,FORGAN HS,36.9062641,-100.535493
42,BEAVER,TURPIN,TURPIN ES,36.8675256,-100.8773837
43,BEAVER,TURPIN,TURPIN HS,36.8675256,-100.8773837
44,BECKHAM,MERRITT,MERRITT ES,35.3789208,-99.471674
45,BECKHAM,MERRITT,MERRITT HS,35.3789208,-99.471674
46,BECKHAM,ELK CITY,ELK CITY IES,35.410413,-99.4072514
47,BECKHAM,ELK CITY,ELK CITY ES,35.410413,-99.4072514
48,BECKHAM,ELK CITY,ELK CITY MS,35.410413,-99.4072514
49,BECKHAM,ELK CITY,ELK CITY HS,35.410413,-99.4072514
50,BECKHAM,SAYRE,SAYRE ES,35.3100876,-99.6299773
51,BECKHAM,SAYRE,SAYRE MS,35.3100876,-99.6299773
52,BECKHAM,SAYRE,SAYRE HS,35.3100876,-99.6299773
53,BECKHAM,ERICK,ERICK ES,35.2140903,-99.8676807
54,BECKHAM,ERICK,ERICK HS,35.2140903,-99.8676807
55,BECKHAM,ERICK,ERICK HS,35.2140903,-99.8676807
56,BLAINE,OKEENE,OKEENE ES,36.116148,-98.3170164
57,BLAINE,OKEENE,OKEENE JR-SR HS (JR),36.1172242,-98.3155936
58,BLAINE,OKEENE,OKEENE JR-SR HS (SR),36.1172242,-98.3155936
59,BLAINE,WATONGA,WATONGA ES,35.8447654,-98.413128
60,BLAINE,WATONGA,WATONGA MS,35.8447654,-98.413128
61,BLAINE,WATONGA,WATONGA HS,35.8447654,-98.413128
62,BLAINE,GEARY,GEARY ES,35.6297466,-98.3247289
63,BLAINE,GEARY,GEARY MS,35.6284304,-98.3193912
64,BLAINE,GEARY,GEARY HS,35.6277511,-98.3184885
65,BLAINE,CANTON,CANTON ES,36.0536399,-98.5898709
66,BLAINE,CANTON,CANTON HS,36.0536399,-98.5898709
67,BRYAN,SILO,SILO ES,34.0393947,-96.4769529
68,BRYAN,SILO,SILO MS,34.0393947,-96.4769529
69,BRYAN,SILO,SILO HS,34.0393947,-96.4769529
70,BRYAN,ROCK CREEK,ROCK CREEK ES,33.9980981,-96.2281488
71,BRYAN,ROCK CREEK,ROCK CREEK HS,34.01695,-96.142267
72,BRYAN,ACHILLE,ACHILLE ES,33.8338498,-96.3872382
73,BRYAN,ACHILLE,ACHILLE HS,33.8338498,-96.3872382
74,BRYAN,COLBERT,WARD ES EAST,33.8524771,-96.5093431
75,BRYAN,COLBERT,WARD ES WEST,33.8524771,-96.5093431
76,BRYAN,COLBERT,COLBERT MS,33.8524771,-96.5093431
77,BRYAN,COLBERT,COLBERT HS,33.8524771,-96.5093431
78,BRYAN,CADDO,CADDO ES,34.1255763,-96.2610751
79,BRYAN,CADDO,CADDO HS,34.1255763,-96.2610751
80,BRYAN,BENNINGTON,BENNINGTON ES,34.0072282,-96.0382938
81,BRYAN,BENNINGTON,BENNINGTON HS,34.0072282,-96.0382938
82,BRYAN,CALERA,CALERA ES,33.9370648,-96.42598
83,BRYAN,CALERA,CALERA HS,33.9370648,-96.42598
84,BRYAN,DURANT,WASHINGTON IRVING ES,33.9993508,-96.3829917
85,BRYAN,DURANT,ROBERT E LEE EARLY CHILDHOOD,33.9897608,-96.3856528
86,BRYAN,DURANT,NORTHWEST HEIGHTS ES,34.0043887,-96.3936783
87,BRYAN,DURANT,DURANT INTERMEDIATE ES,34.0072407,-96.3883987
88,BRYAN,DURANT,DURANT MS,34.0020947,-96.3811913
89,BRYAN,DURANT,DURANT HS,34.0284437,-96.3812038
90,CADDO,HYDRO-EAKLY,HYDRO-EAKLY ES,35.551863,-98.572906
91,CADDO,HYDRO-EAKLY,HYDRO-EAKLY MS,35.551863,-98.572906
92,CADDO,HYDRO-EAKLY,HYDRO-EAKLY HS,35.551863,-98.572906
93,CADDO,LOOKEBA SICKLES,LOOKEBA-SICKLES ES,35.3608409,-98.3672157
94,CADDO,LOOKEBA SICKLES,LOOKEBA-SICKLES HS,35.3490727,-98.4554182
95,CADDO,ANADARKO,ANADARKO EAST ES,35.0741954,-98.2367648
96,CADDO,ANADARKO,SUNSET ES,35.0717369,-98.252912
97,CADDO,ANADARKO,MISSION ES,35.0647178,-98.2514209
98,CADDO,ANADARKO,ANADARKO MS,35.0612778,-98.2558178
99,CADDO,ANADARKO,ANADARKO HS,35.0622466,-98.2565847
100,CADDO,CARNEGIE,CARNEGIE ES,35.0987081,-98.6078975
101,CADDO,CARNEGIE,CARNEGIE MS,35.0987081,-98.6078975
102,CADDO,CARNEGIE,CARNEGIE HS,35.0987081,-98.6078975
103,CADDO,BOONE-APACHE,APACHE ES,34.8936016,-98.3630204
104,CADDO,BOONE-APACHE,APACHE MS,34.8936016,-98.3630204
105,CADDO,BOONE-APACHE,APACHE HS,34.8936016,-98.3630204
106,CADDO,CYRIL,CYRIL ES,34.8965234,-98.203032
107,CADDO,CYRIL,CYRIL JHS,34.8965234,-98.203032
108,CADDO,CYRIL,CYRIL HS,34.8965234,-98.203032
109,CADDO,GRACEMONT,GRACEMONT ES,35.1877021,-98.2622588
110,CADDO,GRACEMONT,GRACEMONT HS,35.1877021,-98.2622588
111,CADDO,CEMENT,CEMENT ES,34.9353083,-98.1399733
112,CADDO,CEMENT,CEMENT HS,34.9353083,-98.1399733
113,CADDO,HINTON,HINTON ES,35.4706253,-98.3538752
114,CADDO,HINTON,HINTON MS,35.4706253,-98.3538752
115,CADDO,HINTON,HINTON HS,35.4706253,-98.3538752
116,CADDO,FORT COBB-BROXTON,FORT COBB-BROXTON LOWER ES,35.0993154,-98.4361758
117,CADDO,FORT COBB-BROXTON,FORT COBB-BROXTON MS,35.0993154,-98.4361758
118,CADDO,FORT COBB-BROXTON,FORT COBB-BROXTON HS,35.0993154,-98.4361758
119,CADDO,BINGER-ONEY,BINGER-ONEY ES,35.3085638,-98.3441878
120,CADDO,BINGER-ONEY,BINGER-ONEY HS,35.3085638,-98.3441878
121,CANADIAN,RIVERSIDE,RIVERSIDE PUBLIC SCHOOL,35.5365876,-97.901484
122,CANADIAN,BANNER,BANNER PUBLIC SCHOOL,35.494085,-97.8493134
123,CANADIAN,DARLINGTON,DARLINGTON PUBLIC SCHOOL,35.5657607,-97.9592574
124,CANADIAN,MAPLE,MAPLE PUBLIC SCHOOL,35.5266537,-98.166901
125,CANADIAN,PIEDMONT,PIEDMONT ES,35.6684965,-97.7457087
126,CANADIAN,PIEDMONT,PIEDMONT PRIMARY ES,35.6536479,-97.7535115
127,CANADIAN,PIEDMONT,STONE RIDGE ES,35.6092988,-97.6960894
128,CANADIAN,PIEDMONT,NORTHWOOD ES,35.6164054,-97.7628761
129,CANADIAN,PIEDMONT,PIEDMONT INTERMEDIATE ES,35.6383424,-97.7567938
130,CANADIAN,PIEDMONT,PIEDMONT MS,35.6468445,-97.7475841
131,CANADIAN,PIEDMONT,PIEDMONT HS,35.6539162,-97.7572919
132,CANADIAN,YUKON,CENTRAL ES,35.5045055,-97.7580545
133,CANADIAN,YUKON,MYERS ES,35.4952184,-97.7447273
134,CANADIAN,YUKON,SHEDECK ES,35.480893,-97.7487726
135,CANADIAN,YUKON,RANCHWOOD ES,35.5142954,-97.7346259
136,CANADIAN,YUKON,SURREY HILLS ES,35.5784403,-97.7225415
137,CANADIAN,YUKON,PARKLAND ES,35.4856012,-97.7413663
138,CANADIAN,YUKON,SKYVIEW ES,35.5014652,-97.7238486
139,CANADIAN,YUKON,INDEPENDENCE ES,35.4928398,-97.7347345
140,CANADIAN,YUKON,LAKEVIEW ES,35.4990912,-97.7224061
141,CANADIAN,YUKON,YUKON MS,35.4984861,-97.759162
142,CANADIAN,YUKON,YUKON HS,35.4883407,-97.7269034
143,CANADIAN,EL RENO,HILLCREST ES,35.5343959,-97.9563721
144,CANADIAN,EL RENO,LINCOLN LEARNING CTR,35.5343959,-97.9563721
145,CANADIAN,EL RENO,ROSE WITCHER ES,35.5343959,-97.9563721
146,CANADIAN,EL RENO,LESLIE F ROBLYER LEARNING CTR,35.5343959,-97.9563721
147,CANADIAN,EL RENO,ETTA DALE JHS,35.5343959,-97.9563721
148,CANADIAN,EL RENO,EL RENO HS,35.5343959,-97.9563721
149,CANADIAN,UNION CITY,UNION CITY ES,35.4113633,-97.9810845
150,CANADIAN,UNION CITY,UNION CITY HS,35.4113633,-97.9810845
151,CANADIAN,MUSTANG,MUSTANG ES,35.3850401,-97.7274763
152,CANADIAN,MUSTANG,MUSTANG VALLEY ES,35.3850401,-97.7274763
153,CANADIAN,MUSTANG,MUSTANG LAKEHOMA ES,35.3850401,-97.7274763
154,CANADIAN,MUSTANG,MUSTANG TRAILS ES,35.3850401,-97.7274763
155,CANADIAN,MUSTANG,MUSTANG CREEK ES,35.3850401,-97.7274763
156,CANADIAN,MUSTANG,MUSTANG EDUCATION CTR,35.3850401,-97.7274763
157,CANADIAN,MUSTANG,MUSTANG CENTENNIAL ES,35.3850401,-97.7274763
158,CANADIAN,MUSTANG,MUSTANG HORIZON IES,35.3850401,-97.7274763
159,CANADIAN,MUSTANG,CANYON RIDGE IES,35.3850401,-97.7274763
160,CANADIAN,MUSTANG,PRAIRIE VIEW ES,35.3850401,-97.7274763
161,CANADIAN,MUSTANG,MUSTANG MS,35.3850401,-97.7274763
162,CANADIAN,MUSTANG,MUSTANG NORTH MS,35.3850401,-97.7274763
163,CANADIAN,MUSTANG,MUSTANG HS,35.3850401,-97.7274763
164,CANADIAN,CALUMET,CALUMET ES,35.6012075,-98.1183189
165,CANADIAN,CALUMET,CALUMET HS,35.6016191,-98.1214414
166,CARTER,ZANEIS,ZANEIS PUBLIC SCHOOL,34.171931,-97.499932
167,CARTER,ARDMORE,CHARLES EVANS ES,34.1742611,-97.1436254
168,CARTER,ARDMORE,JEFFERSON ES,34.1715164,-97.1313581
169,CARTER,ARDMORE,LINCOLN ES,34.1742611,-97.1436254
170,CARTER,ARDMORE,WILL ROGERS ES,34.1742611,-97.1436254
171,CARTER,ARDMORE,ARDMORE MS,34.1742611,-97.1436254
172,CARTER,ARDMORE,ARDMORE HS,34.1742611,-97.1436254
173,CARTER,SPRINGER,SPRINGER ES,34.3145355,-97.1427939
174,CARTER,SPRINGER,SPRINGER HS,34.3145355,-97.1427939
175,CARTER,PLAINVIEW,PLAINVIEW PRIMARY ES,34.1572727,-97.1778917
176,CARTER,PLAINVIEW,PLAINVIEW INTERMEDIATE ES,34.1572727,-97.1778917
177,CARTER,PLAINVIEW,PLAINVIEW MS,34.1572727,-97.1778917
178,CARTER,PLAINVIEW,PLAINVIEW HS,34.1572727,-97.1778917
179,CARTER,LONE GROVE,LONE GROVE INTERMEDIATE SCHOOL,34.1721777,-97.2478142
180,CARTER,LONE GROVE,LONE GROVE PRIMARY ES,34.1721777,-97.2478142
181,CARTER,LONE GROVE,LONE GROVE MS,34.1721777,-97.2478142
182,CARTER,LONE GROVE,LONE GROVE HS,34.1721777,-97.2478142
183,CARTER,WILSON,WILSON ES,34.1662076,-97.4160554
184,CARTER,WILSON,WILSON HS,34.1662076,-97.4160554
185,CARTER,HEALDTON,HEALDTON ES,34.2342662,-97.4873301
186,CARTER,HEALDTON,HEALDTON MS,34.2342662,-97.4873301
187,CARTER,HEALDTON,HEALDTON HS,34.2342662,-97.4873301
188,CARTER,FOX,FOX ES,34.1742611,-97.1436254
189,CARTER,FOX,FOX HS,34.1742611,-97.1436254
190,CARTER,DICKSON,DICKSON ES,34.1895997,-96.9831985
191,CARTER,DICKSON,DICKSON UPPER ES,34.1895997,-96.9831985
192,CARTER,DICKSON,DICKSON MS,34.1895997,-96.9831985
193,CARTER,DICKSON,DICKSON HS,34.1895997,-96.9831985
194,CHEROKEE,LOWREY,LOWREY PUBLIC SCHOOL,36.0896424,-94.9216876
195,CHEROKEE,NORWOOD,NORWOOD PUBLIC SCHOOL,35.8712851,-95.1645382
196,CHEROKEE,WOODALL,WOODALL PUBLIC SCHOOL,35.822053,-95.0565527
197,CHEROKEE,SHADY GROVE,SHADY GROVE PUBLIC SCHOOL,35.9590268,-95.099781
198,CHEROKEE,PEGGS,PEGGS PUBLIC SCHOOL,36.0812266,-95.09794
199,CHEROKEE,GRAND VIEW,GRAND VIEW PUBLIC SCHOOL,35.9525421,-94.9958845
200,CHEROKEE,GRAND VIEW,GRAND VIEW PUBLIC SCHOOL,35.9525421,-94.9958845
201,CHEROKEE,BRIGGS,BRIGGS PUBLIC SCHOOL,35.9224036,-94.8729344
202,CHEROKEE,TENKILLER,TENKILLER PUBLIC SCHOOL,35.7701355,-94.8443247
203,CHEROKEE,KEYS,KEYS ES,35.7972367,-94.9636153
204,CHEROKEE,KEYS,KEYS HS,35.7886021,-94.9691706
205,CHEROKEE,HULBERT,HULBERT ES,35.9322108,-95.1402763
206,CHEROKEE,HULBERT,HULBERT MS,35.9322108,-95.1402763
207,CHEROKEE,HULBERT,HULBERT JR-SR HS (SR),35.9322108,-95.1402763
208,CHEROKEE,TAHLEQUAH,SEQUOYAH ES,35.9100086,-94.973877
209,CHEROKEE,TAHLEQUAH,CHEROKEE ES,35.9172163,-94.9595475
210,CHEROKEE,TAHLEQUAH,GREENWOOD ES,35.9088279,-94.9654098
211,CHEROKEE,TAHLEQUAH,HERITAGE ES,35.8784445,-94.9811712
212,CHEROKEE,TAHLEQUAH,TAHLEQUAH MS,35.9225728,-94.9882703
213,CHEROKEE,TAHLEQUAH,TAHLEQUAH HS,35.9215058,-94.9836814
214,CHEROKEE,CHEROKEE IMMERSION CHARTER SCH,CHEROKEE IMMERSION CHARTER SCH,35.9017991,-94.9739555
215,CHOCTAW,SWINK,SWINK PUBLIC SCHOOL,34.018966,-95.202278
216,CHOCTAW,BOSWELL,BOSWELL ES,34.027553,-95.8698998
217,CHOCTAW,BOSWELL,BOSWELL MS,34.027553,-95.8698998
218,CHOCTAW,BOSWELL,BOSWELL HS,34.027553,-95.8698998
219,CHOCTAW,FORT TOWSON,FORT TOWSON ES,34.0197457,-95.2667231
220,CHOCTAW,FORT TOWSON,FORT TOWSON JHS,34.0197457,-95.2667231
221,CHOCTAW,FORT TOWSON,FORT TOWSON HS,34.0197457,-95.2667231
222,CHOCTAW,SOPER,SOPER ES,34.0337736,-95.6981318
223,CHOCTAW,SOPER,SOPER HS,34.0337736,-95.6981318
224,CHOCTAW,HUGO,HUGO ES,34.0116076,-95.5113372
225,CHOCTAW,HUGO,HUGO INTERMEDIATE,34.0116076,-95.5113372
226,CHOCTAW,HUGO,HUGO MS,34.0116076,-95.5113372
227,CHOCTAW,HUGO,HUGO HS,34.0116076,-95.5113372
228,CIMARRON,BOISE CITY,BOISE CITY ES,36.7294675,-102.5132419
229,CIMARRON,BOISE CITY,BOISE CITY JHS,36.7285802,-102.5050903
230,CIMARRON,BOISE CITY,BOISE CITY HS,36.7285802,-102.5050903
231,CIMARRON,FELT,FELT ES,36.5649161,-102.7947171
232,CIMARRON,FELT,FELT HS,36.5649161,-102.7947171
233,CIMARRON,KEYES,KEYES ES,36.8065127,-102.2521878
234,CIMARRON,KEYES,KEYES HS,36.8065127,-102.2521878
235,CLEVELAND,ROBIN HILL,ROBIN HILL PUBLIC SCHOOL,35.2771232,-97.3696895
236,CLEVELAND,MOORE,CENTRAL ES,35.3407341,-97.4880246
237,CLEVELAND,MOORE,FAIRVIEW ES,35.3786684,-97.5573032
238,CLEVELAND,MOORE,KELLEY ES,35.3555984,-97.5023479
239,CLEVELAND,MOORE,NORTHMOOR ES,35.3554071,-97.4917604
240,CLEVELAND,MOORE,SOUTHGATE-RIPPETOE ES,35.3412385,-97.5051126
241,CLEVELAND,MOORE,PLAZA TOWERS ES,35.3266123,-97.5045954
242,CLEVELAND,MOORE,SKY RANCH ES,35.3721004,-97.5309063
243,CLEVELAND,MOORE,KINGSGATE ES,35.3693044,-97.5416663
244,CLEVELAND,MOORE,HOUCHIN ES,35.3672441,-97.506854
245,CLEVELAND,MOORE,WINDING CREEK ES,35.3500644,-97.4685304
246,CLEVELAND,MOORE,SANTA FE ES,35.3405283,-97.5121258
247,CLEVELAND,MOORE,APPLE CREEK ES,35.3263125,-97.4703217
248,CLEVELAND,MOORE,RED OAK ES,35.3553248,-97.546735
249,CLEVELAND,MOORE,BRIARWOOD ES,35.321292,-97.5201923
250,CLEVELAND,MOORE,FISHER ES,35.3505501,-97.5580812
251,CLEVELAND,MOORE,SOONER ES,35.3769241,-97.4245236
252,CLEVELAND,MOORE,EARLYWINE ES,35.3404119,-97.5638468
253,CLEVELAND,MOORE,BROADMOORE ES,35.3061685,-97.470963
254,CLEVELAND,MOORE,EASTLAKE ES,35.3360197,-97.5393297
255,CLEVELAND,MOORE,BRYANT ES,35.3731717,-97.4583151
256,CLEVELAND,MOORE,WAYLAND BONDS ES,35.3271507,-97.5668817
257,CLEVELAND,MOORE,OAKRIDGE ES,35.306801,-97.5130179
258,CLEVELAND,MOORE,HERITAGE TRAILS ES,35.3226722,-97.459229
259,CLEVELAND,MOORE,SOUTH LAKE ES,35.3424142,-97.5839354
260,CLEVELAND,MOORE,TIMBER CREEK ES,35.3043547,-97.4422248
261,CLEVELAND,MOORE,BRINK JHS,35.3545977,-97.5299818
262,CLEVELAND,MOORE,HIGHLAND EAST JHS,35.3342214,-97.4694269
263,CLEVELAND,MOORE,HIGHLAND WEST JHS,35.3452297,-97.5130593
264,CLEVELAND,MOORE,WEST JHS,35.3737191,-97.5471527
265,CLEVELAND,MOORE,CENTRAL JHS,35.3414895,-97.486673
266,CLEVELAND,MOORE,SOUTHRIDGE JHS,35.3279402,-97.5477944
267,CLEVELAND,MOORE,MOORE HS,35.3397058,-97.4740877
268,CLEVELAND,MOORE,WESTMOORE HS,35.3426525,-97.5312813
269,CLEVELAND,MOORE,SOUTHMOORE HS,35.3110607,-97.5159239
270,CLEVELAND,NORMAN,LAKEVIEW ES,35.25889,-97.283624
271,CLEVELAND,NORMAN,ADAMS ES,35.2281201,-97.4569135
272,CLEVELAND,NORMAN,CLEVELAND ES,35.225716,-97.4681417
273,CLEVELAND,NORMAN,JACKSON ES,35.2133923,-97.4640847
274,CLEVELAND,NORMAN,JEFFERSON ES,35.2264216,-97.4352201
275,CLEVELAND,NORMAN,KENNEDY ES,35.2102907,-97.4182671
276,CLEVELAND,NORMAN,LINCOLN ES,35.2148095,-97.4359635
277,CLEVELAND,NORMAN,MADISON ES,35.1985623,-97.436676
278,CLEVELAND,NORMAN,MCKINLEY ES,35.2082618,-97.4535173
279,CLEVELAND,NORMAN,EISENHOWER ES,35.2394172,-97.4203322
280,CLEVELAND,NORMAN,WILSON ES,35.2282049,-97.4446307
281,CLEVELAND,NORMAN,MONROE ES,35.1982852,-97.4671272
282,CLEVELAND,NORMAN,RONALD REAGAN ES,35.1982935,-97.4046248
283,CLEVELAND,NORMAN,ROOSEVELT ES,35.2608856,-97.5040455
284,CLEVELAND,NORMAN,TRUMAN ES,35.226932,-97.504185
285,CLEVELAND,NORMAN,WASHINGTON ES,35.2145801,-97.3713237
286,CLEVELAND,NORMAN,TRUMAN PRIMARY SCHOOL,35.2286837,-97.5069226
287,CLEVELAND,NORMAN,DIMENSIONS ACADEMY,35.2273811,-97.4248343
288,CLEVELAND,NORMAN,IRVING MS,35.214035,-97.4095
289,CLEVELAND,NORMAN,ALCOTT MS,35.2131666,-97.4686003
290,CLEVELAND,NORMAN,LONGFELLOW MS,35.2250305,-97.4381578
291,CLEVELAND,NORMAN,WHITTIER MS,35.206622,-97.470096
292,CLEVELAND,NORMAN,NORMAN HS,35.2203409,-97.4568145
293,CLEVELAND,NORMAN,NORMAN NORTH HS,35.243975,-97.448373
294,CLEVELAND,NORMAN,DIMENSIONS ACADEMY,35.2273811,-97.4248343
295,CLEVELAND,NOBLE,KATHERINE I. DAILY ES,35.1360867,-97.3927284
296,CLEVELAND,NOBLE,PIONEER INTERMEDIATE ES,35.1411841,-97.3897305
297,CLEVELAND,NOBLE,JOHN K. HUBBARD ES,35.130488,-97.380822
298,CLEVELAND,NOBLE,CURTIS INGE MS,35.1521871,-97.3872816
299,CLEVELAND,NOBLE,NOBLE HS,35.1485187,-97.3723703
300,CLEVELAND,LEXINGTON,LEXINGTON ES,35.0191057,-97.3286644
301,CLEVELAND,LEXINGTON,LEXINGTON MS,35.0191057,-97.3286644
302,CLEVELAND,LEXINGTON,LEXINGTON HS,35.0159342,-97.3254127
303,CLEVELAND,LITTLE AXE,LITTLE AXE ES,35.234328,-97.1949173
304,CLEVELAND,LITTLE AXE,LITTLE AXE MS,35.234328,-97.1949173
305,CLEVELAND,LITTLE AXE,LITTLE AXE HS,35.234328,-97.1949173
306,COAL,COTTONWOOD,COTTONWOOD PUBLIC SCHOOL,34.5391964,-96.2179197
307,COAL,COALGATE,EMERSON ES,34.5343022,-96.2188224
308,COAL,COALGATE,WALLACE BYRD MS,34.5343022,-96.2188224
309,COAL,COALGATE,COALGATE HS,34.5343022,-96.2188224
310,COAL,TUPELO,TUPELO ES,34.6037709,-96.425968
311,COAL,TUPELO,TUPELO HS,34.6037709,-96.425968
312,COMANCHE,FLOWER MOUND,FLOWER MOUND PUBLIC SCHOOL,34.5788529,-98.3529128
313,COMANCHE,BISHOP,BISHOP PUBLIC SCHOOL,34.5799098,-98.4222489
314,COMANCHE,CACHE,CACHE PRIMARY ES,34.6235496,-98.6241455
315,COMANCHE,CACHE,CACHE INTERMEDIATE ES,34.6235496,-98.6241455
316,COMANCHE,CACHE,CACHE MS,34.6235496,-98.6241455
317,COMANCHE,CACHE,CACHE 5TH AND 6TH GRADE MS,34.6235496,-98.6241455
318,COMANCHE,CACHE,CACHE HS,34.6235496,-98.6241455
319,COMANCHE,INDIAHOMA,INDIAHOMA ES,34.6198476,-98.7537966
320,COMANCHE,INDIAHOMA,INDIAHOMA HS,34.6198476,-98.7537966
321,COMANCHE,STERLING,STERLING ES,34.7500115,-98.1726039
322,COMANCHE,STERLING,STERLING HS,34.7500115,-98.1726039
323,COMANCHE,GERONIMO,GERONIMO ES,34.4806524,-98.3791653
324,COMANCHE,GERONIMO,GERONIMO MS,34.4806524,-98.3791653
325,COMANCHE,GERONIMO,GERONIMO HS,34.4806524,-98.3791653
326,COMANCHE,LAWTON,ADAMS ES,34.6171492,-98.4351301
327,COMANCHE,LAWTON,ALMOR WEST ES,34.6051942,-98.4786732
328,COMANCHE,LAWTON,ALMOR WEST ES,34.6051942,-98.4786732
329,COMANCHE,LAWTON,CARRIAGE HILLS ES,34.6055329,-98.3470925
330,COMANCHE,LAWTON,CLEVELAND ES,34.5972093,-98.4306214
331,COMANCHE,LAWTON,CROSBY PARK ES,34.6270117,-98.4676133
332,COMANCHE,LAWTON,EDISON ES,34.6134323,-98.4639275
333,COMANCHE,LAWTON,EISENHOWER ES,34.605461,-98.457344
334,COMANCHE,LAWTON,FREEDOM ES,34.6561706,-98.3938883
335,COMANCHE,LAWTON,RIDGECREST ES,34.6294698,-98.4505559
336,COMANCHE,LAWTON,HUGH BISH ES,34.6330937,-98.4629451
337,COMANCHE,LAWTON,LINCOLN ES,34.5963792,-98.3968259
338,COMANCHE,LAWTON,PAT HENRY ES,34.6336904,-98.4107124
339,COMANCHE,LAWTON,PIONEER PARK ES,34.6378743,-98.380775
340,COMANCHE,LAWTON,SULLIVAN VILLAGE ES,34.6000807,-98.3414439
341,COMANCHE,LAWTON,WASHINGTON ES,34.613207,-98.4009047
342,COMANCHE,LAWTON,LEARNING TREE ACADEMY,34.6296807,-98.4401003
343,COMANCHE,LAWTON,WHITTIER ES,34.6217629,-98.4112692
344,COMANCHE,LAWTON,WOODLAND HILLS ES,34.6129579,-98.4771189
345,COMANCHE,LAWTON,MACARTHUR MS,34.6144227,-98.3362139
346,COMANCHE,LAWTON,CENTRAL MS,34.6215067,-98.4031745
347,COMANCHE,LAWTON,TOMLINSON MS,34.6173862,-98.4290272
348,COMANCHE,LAWTON,EISENHOWER MS,34.6076458,-98.4619559
349,COMANCHE,LAWTON,EISENHOWER HS,34.6069899,-98.4590414
350,COMANCHE,LAWTON,LAWTON HS,34.6178206,-98.3981211
351,COMANCHE,LAWTON,MACARTHUR HS,34.6086817,-98.3355782
352,COMANCHE,FLETCHER,FLETCHER ES,34.9353083,-98.1399733
353,COMANCHE,FLETCHER,FLETCHER JHS,34.9353083,-98.1399733
354,COMANCHE,FLETCHER,FLETCHER HS,34.9353083,-98.1399733
355,COMANCHE,ELGIN,ELGIN ES,34.7829193,-98.2900777
356,COMANCHE,ELGIN,ELGIN ES,34.7829193,-98.2900777
357,COMANCHE,ELGIN,ELGIN MS,34.7829193,-98.2900777
358,COMANCHE,ELGIN,ELGIN HS,34.7829193,-98.2900777
359,COMANCHE,CHATTANOOGA,CHATTANOOGA ES,34.423231,-98.6587013
360,COMANCHE,CHATTANOOGA,CHATTANOOGA HS,34.423231,-98.6587013
361,COTTON,WALTERS,WALTERS ES,34.3542166,-98.3094643
362,COTTON,WALTERS,WALTERS MS,34.3542166,-98.3094643
363,COTTON,WALTERS,WALTERS HS,34.3542166,-98.3094643
364,COTTON,TEMPLE,TEMPLE ES,34.2694375,-98.235551
365,COTTON,TEMPLE,TEMPLE HS,34.2694375,-98.235551
366,COTTON,BIG PASTURE,BIG PASTURE ES,34.1770402,-98.4637336
367,COTTON,BIG PASTURE,BIG PASTURE HS,34.1770402,-98.4637336
368,CRAIG,WHITE OAK,WHITE OAK PUBLIC SCHOOL,36.6216878,-95.2696526
369,CRAIG,KETCHUM,KETCHUM ES,36.5276016,-95.0264909
370,CRAIG,KETCHUM,KETCHUM MS,36.5276016,-95.0264909
371,CRAIG,KETCHUM,KETCHUM HS,36.5276016,-95.0264909
372,CRAIG,WELCH,WELCH ES,36.8736854,-95.0957968
373,CRAIG,WELCH,WELCH MS,36.8736854,-95.0957968
374,CRAIG,WELCH,WELCH HS,36.8736854,-95.0957968
375,CRAIG,BLUEJACKET,BLUEJACKET ES,36.799758,-95.07224
376,CRAIG,BLUEJACKET,BLUEJACKET MS,36.799758,-95.07224
377,CRAIG,BLUEJACKET,BLUEJACKET HS,36.799758,-95.07224
378,CRAIG,VINITA,VINITA ES,36.6401311,-95.1581895
379,CRAIG,VINITA,VINITA ES,36.6401311,-95.1581895
380,CRAIG,VINITA,EWING HALSELL MS,36.6423345,-95.1578722
381,CRAIG,VINITA,VINITA HS,36.654041,-95.1615841
382,CREEK,LONE STAR,LONE STAR PUBLIC SCHOOL,35.9611231,-96.1164801
383,CREEK,GYPSY,GYPSY PUBLIC SCHOOL,35.713113,-96.458212
384,CREEK,PRETTY WATER,PRETTY WATER PUBLIC SCHOOL,36.0474705,-96.162807
385,CREEK,ALLEN-BOWDEN,ALLEN-BOWDEN PUBLIC SCHOOL,36.0608816,-96.0866617
386,CREEK,BRISTOW,EDISON ES,35.8363978,-96.3920149
387,CREEK,BRISTOW,COLLINS ES,35.8366396,-96.3911771
388,CREEK,BRISTOW,BRISTOW MS,35.8366396,-96.3911771
389,CREEK,BRISTOW,BRISTOW HS,35.8366396,-96.3911771
390,CREEK,MANNFORD,MANNFORD LOWER ES,36.1244751,-96.3525428
391,CREEK,MANNFORD,MANNFORD UPPER ES,36.1244751,-96.3525428
392,CREEK,MANNFORD,MANNFORD EC CTR,36.1244751,-96.3525428
393,CREEK,MANNFORD,MANNFORD MS,36.1244751,-96.3525428
394,CREEK,MANNFORD,MANNFORD HS,36.1244751,-96.3525428
395,CREEK,MOUNDS,MOUNDS ES,35.8801449,-96.0550968
396,CREEK,MOUNDS,MOUNDS HS,35.8801449,-96.0550968
397,CREEK,OLIVE,OLIVE ES,36.027962,-96.480894
398,CREEK,OLIVE,OLIVE HS,36.027962,-96.480894
399,CREEK,KIEFER,KIEFER ES,35.9438678,-96.0441681
400,CREEK,KIEFER,RONGEY MS,35.9438678,-96.0441681
401,CREEK,KIEFER,KIEFER HS,35.9438678,-96.0441681
402,CREEK,OILTON,J. F. KENNEDY ES,36.0825493,-96.5797541
403,CREEK,OILTON,OILTON HS,36.0825493,-96.5797541
404,CREEK,DEPEW,DEPEW ES,35.8031352,-96.5056106
405,CREEK,DEPEW,DEPEW HS,35.8031352,-96.5056106
406,CREEK,KELLYVILLE,KELLYVILLE ES,35.9433,-96.214225
407,CREEK,KELLYVILLE,KELLYVILLE UPPER ES,35.9433,-96.214225
408,CREEK,KELLYVILLE,KELLYVILLE MS,35.9433,-96.214225
409,CREEK,KELLYVILLE,KELLYVILLE HS,35.9433,-96.214225
410,CREEK,SAPULPA,LIBERTY ES,36.0074673,-96.0912206
411,CREEK,SAPULPA,FREEDOM ES,36.03081,-96.0800109
412,CREEK,SAPULPA,JEFFERSON HEIGHTS ES,35.9822079,-96.1357169
413,CREEK,SAPULPA,HOLMES PARK ES,35.999854,-96.0953108
414,CREEK,SAPULPA,SAPULPA MS,35.9907465,-96.094483
415,CREEK,SAPULPA,SAPULPA JHS,35.9979292,-96.0971696
416,CREEK,SAPULPA,SAPULPA HS,35.9980196,-96.0969773
417,CREEK,DRUMRIGHT,BRADLEY ES,35.9829406,-96.6137276
418,CREEK,DRUMRIGHT,VIRGIL COOPER MS,35.9844158,-96.6107169
419,CREEK,DRUMRIGHT,DRUMRIGHT HS,35.9844158,-96.6107169
420,CUSTER,ARAPAHO-BUTLER,ARAPAHO-BUTLER ES,35.5773954,-98.9597621
421,CUSTER,ARAPAHO-BUTLER,ARAPAHO-BUTLER HS,35.5773954,-98.9597621
422,CUSTER,THOMAS-FAY-CUSTER UNIFIED DIST,THOMAS ES,35.7443745,-98.7478638
423,CUSTER,THOMAS-FAY-CUSTER UNIFIED DIST,THOMAS-FAY-CUSTER UNIFIED JHS,35.7443745,-98.7478638
424,CUSTER,THOMAS-FAY-CUSTER UNIFIED DIST,THOMAS-FAY-CUSTER UNIFIED HS,35.7443745,-98.7478638
425,CUSTER,WEATHERFORD,WEATHERFORD EAST ES,35.5304986,-98.6991735
426,CUSTER,WEATHERFORD,WEATHERFORD WEST ES,35.5331992,-98.7170537
427,CUSTER,WEATHERFORD,BURCHAM ES,35.5414343,-98.6864482
428,CUSTER,WEATHERFORD,WEATHERFORD MS,35.530168,-98.7083956
429,CUSTER,WEATHERFORD,WEATHERFORD HS,35.5415831,-98.6917219
430,CUSTER,CLINTON,NANCE ES,35.5066234,-98.9801747
431,CUSTER,CLINTON,SOUTHWEST ES,35.5066234,-98.9801747
432,CUSTER,CLINTON,WASHINGTON ES,35.5066234,-98.9801747
433,CUSTER,CLINTON,CLINTON MS,35.5066234,-98.9801747
434,CUSTER,CLINTON,CLINTON HS,35.5066234,-98.9801747
435,DELAWARE,CLEORA,CLEORA PUBLIC SCHOOL,36.5904394,-94.9653484
436,DELAWARE,LEACH,LEACH PUBLIC SCHOOL,36.2002323,-94.9403295
437,DELAWARE,KENWOOD,KENWOOD PUBLIC SCHOOL,36.3129605,-95.1544737
438,DELAWARE,MOSELEY,MOSELEY PUBLIC SCHOOL,36.1892045,-94.6289777
439,DELAWARE,JAY,JAY ES,36.4195525,-94.7992102
440,DELAWARE,JAY,JAY UPPER ES,36.4195525,-94.7992102
441,DELAWARE,JAY,JAY MS,36.4195525,-94.7992102
442,DELAWARE,JAY,JAY HS,36.4195525,-94.7992102
443,DELAWARE,GROVE,GROVE UPPER ES,36.585382,-94.75476
444,DELAWARE,GROVE,GROVE LOWER ES,36.585382,-94.75476
445,DELAWARE,GROVE,GROVE MS,36.585382,-94.75476
446,DELAWARE,GROVE,GROVE HS,36.585382,-94.75476
447,DELAWARE,KANSAS,KANSAS ES,36.2080703,-94.7994644
448,DELAWARE,KANSAS,KANSAS MS,36.2088339,-94.8036312
449,DELAWARE,KANSAS,KANSAS HS,36.2126058,-94.8043341
450,DELAWARE,COLCORD,COLCORD ES,36.2634962,-94.6915356
451,DELAWARE,COLCORD,COLCORD HS,36.2634962,-94.6915356
452,DELAWARE,OAKS-MISSION,OAKS-MISSION ES,36.1658303,-94.8552965
453,DELAWARE,OAKS-MISSION,OAKS-MISSION HS,36.1658303,-94.8552965
454,DEWEY,VICI,VICI ES,36.1510026,-99.2982201
455,DEWEY,VICI,VICI HS,36.1510026,-99.2982201
456,DEWEY,SEILING,SEILING ES,36.147821,-98.923767
457,DEWEY,SEILING,SEILING JR-SR HS (JR),36.147821,-98.923767
458,DEWEY,SEILING,SEILING JR-SR HS (SR),36.147821,-98.923767
459,DEWEY,TALOGA,TALOGA ES,36.0392123,-98.9641616
460,DEWEY,TALOGA,TALOGA HS,36.0392123,-98.9641616
461,ELLIS,FARGO,FARGO ES,36.374384,-99.6230902
462,ELLIS,FARGO,FARGO HS,36.374384,-99.6230902
463,ELLIS,ARNETT,ARNETT ES,36.1345032,-99.7714791
464,ELLIS,ARNETT,ARNETT HS,36.1345032,-99.7714791
465,ELLIS,SHATTUCK,SHATTUCK ES,36.2716323,-99.8818027
466,ELLIS,SHATTUCK,SHATTUCK HS,36.2716323,-99.8818027
467,GARFIELD,WAUKOMIS,WAUKOMIS ES,36.2804207,-97.8941917
468,GARFIELD,WAUKOMIS,WAUKOMIS HS,36.2804207,-97.8941917
469,GARFIELD,KREMLIN-HILLSDALE,KREMLIN-HILLSDALE ES,36.544461,-97.8298499
470,GARFIELD,KREMLIN-HILLSDALE,KREMLIN-HILLSDALE HS,36.5434724,-97.8298601
471,GARFIELD,CHISHOLM,CHISHOLM ES,36.4370853,-97.8670438
472,GARFIELD,CHISHOLM,CHISHOLM MS,36.4641062,-97.9294052
473,GARFIELD,CHISHOLM,CHISHOLM HS,36.4643812,-97.9282145
474,GARFIELD,GARBER,GARBER ES,36.4396049,-97.5822319
475,GARFIELD,GARBER,GARBER HS,36.4396049,-97.5822319
476,GARFIELD,PIONEER-PLEASANT VALE,PIONEER-PLEASANT VALE ES,36.4198522,-97.7913402
477,GARFIELD,PIONEER-PLEASANT VALE,PIONEER-PLEASANT VALE JHS,36.27597,-97.784626
478,GARFIELD,PIONEER-PLEASANT VALE,PIONEER-PLEASANT VALE HS,36.27597,-97.784626
479,GARFIELD,ENID,ADAMS ES,36.3983072,-97.8461874
480,GARFIELD,ENID,CARVER EARLY CHILDHOOD CTR,36.3883529,-97.8709271
481,GARFIELD,ENID,COOLIDGE ES,36.4071183,-97.8556806
482,GARFIELD,ENID,EISENHOWER ES,36.346373,-97.8976689
483,GARFIELD,ENID,GARFIELD ES,36.4005492,-97.8689289
484,GARFIELD,ENID,GLENWOOD ES,36.404447,-97.927091
485,GARFIELD,ENID,HAYES ES,36.3809677,-97.9043946
486,GARFIELD,ENID,HOOVER ES,36.396209,-97.9129022
487,GARFIELD,ENID,MCKINLEY ES,36.396199,-97.899675
488,GARFIELD,ENID,MONROE ES,36.4191999,-97.883149
489,GARFIELD,ENID,PRAIRIE VIEW ES,36.4212465,-97.9367782
490,GARFIELD,ENID,TAFT ES,36.3849906,-97.8938041
491,GARFIELD,ENID,EMERSON MS,36.400296,-97.887198
492,GARFIELD,ENID,LONGFELLOW MS,36.3973998,-97.8644225
493,GARFIELD,ENID,DEWITT WALLER MS,36.3989811,-97.9113099
494,GARFIELD,ENID,ENID HS,36.3880534,-97.8858604
495,GARFIELD,DRUMMOND,DRUMMOND ES,36.300378,-98.0362836
496,GARFIELD,DRUMMOND,DRUMMOND HS,36.300378,-98.0362836
497,GARFIELD,COVINGTON-DOUGLAS,COVINGTON-DOUGLAS ES,36.3058658,-97.5822294
498,GARFIELD,COVINGTON-DOUGLAS,COVINGTON-DOUGLAS HS,36.3058658,-97.5822294
499,GARVIN,WHITEBEAD,WHITEBEAD PUBLIC SCHOOL,34.8191459,-97.3006519
500,GARVIN,STRATFORD,STRATFORD ES,34.7957803,-96.961815
501,GARVIN,STRATFORD,STRATFORD MS,34.7957803,-96.961815
502,GARVIN,STRATFORD,STRATFORD HS,34.7957803,-96.961815
503,GARVIN,PAOLI,PAOLI ES,34.8262411,-97.2596481
504,GARVIN,PAOLI,PAOLI HS,34.8262411,-97.2596481
505,GARVIN,MAYSVILLE,MAYSVILLE ES,34.8216994,-97.4084067
506,GARVIN,MAYSVILLE,MAYSVILLE HS,34.8216994,-97.4084067
507,GARVIN,LINDSAY,LINDSAY ES,34.8337204,-97.6123481
508,GARVIN,LINDSAY,LINDSAY MS,34.8337243,-97.6138367
509,GARVIN,LINDSAY,LINDSAY HS,34.8347438,-97.612353
510,GARVIN,PAULS VALLEY,JEFFERSON EARLY LRNING CTR,34.7399319,-97.2203068
511,GARVIN,PAULS VALLEY,JACKSON ES,34.7399319,-97.2203068
512,GARVIN,PAULS VALLEY,LEE ES,34.7399319,-97.2203068
513,GARVIN,PAULS VALLEY,PAULS VALLEY JHS,34.7399319,-97.2203068
514,GARVIN,PAULS VALLEY,PAULS VALLEY HS,34.7399319,-97.2203068
515,GARVIN,WYNNEWOOD,CENTRAL ES,34.6414558,-97.1675573
516,GARVIN,WYNNEWOOD,WYNNEWOOD MS,34.6424826,-97.1625186
517,GARVIN,WYNNEWOOD,WYNNEWOOD HS,34.6441464,-97.1631171
518,GARVIN,ELMORE CITY-PERNELL,ELMORE CITY-PERNELL ES,34.6234636,-97.3937402
519,GARVIN,ELMORE CITY-PERNELL,ELMORE CITY JHS,34.6234636,-97.3937402
520,GARVIN,ELMORE CITY-PERNELL,SENIOR HS,34.6234636,-97.3937402
521,GRADY,FRIEND,FRIEND PUBLIC SCHOOL,35.0585688,-97.8804756
522,GRADY,MIDDLEBERG,MIDDLEBERG PUBLIC SCHOOL,35.1065534,-97.7361762
523,GRADY,PIONEER,PIONEER PUBLIC SCHOOL,34.9859146,-98.0209645
524,GRADY,CHICKASHA,GRAND AVENUE ES,35.029563,-97.936709
525,GRADY,CHICKASHA,LINCOLN ES,35.044978,-97.9328074
526,GRADY,CHICKASHA,BILL WALLACE EC CTR,35.0273073,-97.9525606
527,GRADY,CHICKASHA,CHICKASHA MS,35.0403386,-97.9448572
528,GRADY,CHICKASHA,CHICKASHA HS,35.0514174,-97.9577539
529,GRADY,MINCO,MINCO ES,35.312699,-97.9455225
530,GRADY,MINCO,MINCO MS,35.312699,-97.9455225
531,GRADY,MINCO,MINCO HS,35.312699,-97.9455225
532,GRADY,NINNEKAH,NINNEKAH ES,34.9477574,-97.9213424
533,GRADY,NINNEKAH,NINNEKAH MS,34.9477574,-97.9213424
534,GRADY,NINNEKAH,SENIOR HS,34.9477574,-97.9213424
535,GRADY,ALEX,ALEX ES,34.9173405,-97.7786091
536,GRADY,ALEX,ALEX HS,34.9173405,-97.7786091
537,GRADY,RUSH SPRINGS,RUSH SPRINGS ES,34.7829569,-97.9571318
538,GRADY,RUSH SPRINGS,RUSH SPRINGS MS,34.7829569,-97.9571318
539,GRADY,RUSH SPRINGS,RUSH SPRINGS HS,34.7829569,-97.9571318
540,GRADY,BRIDGE CREEK,BRIDGE CREEK EARLY CHILDHOOD,35.2357317,-97.7227234
541,GRADY,BRIDGE CREEK,BRIDGE CREEK EARLY CHILDHOOD,35.2357317,-97.7227234
542,GRADY,BRIDGE CREEK,BRIDGE CREEK IES,35.2357317,-97.7227234
543,GRADY,BRIDGE CREEK,BRIDGE CREEK MS,35.2357317,-97.7227234
544,GRADY,BRIDGE CREEK,BRIDGE CREEK HS,35.2357317,-97.7227234
545,GRADY,TUTTLE,TUTTLE ES,35.2913421,-97.8068107
546,GRADY,TUTTLE,TUTTLE INTERMEDIATE ES,35.2913421,-97.8068107
547,GRADY,TUTTLE,TUTTLE EARLY CHILDHOOD CENTER,35.2913421,-97.8068107
548,GRADY,TUTTLE,TUTTLE EARLY CHILDHOOD CENTER,35.2913421,-97.8068107
549,GRADY,TUTTLE,TUTTLE MS,35.2913421,-97.8068107
550,GRADY,TUTTLE,TUTTLE HS,35.2913421,-97.8068107
551,GRADY,VERDEN,VERDEN ES,35.0859902,-98.0884105
552,GRADY,VERDEN,VERDEN HS,35.0859902,-98.0884105
553,GRADY,AMBER-POCASSET,AMBER-POCASSET ES,35.160454,-97.875309
554,GRADY,AMBER-POCASSET,AMBER-POCASSET JHS,35.160454,-97.875309
555,GRADY,AMBER-POCASSET,AMBER-POCASSET HS,35.160454,-97.875309
556,GRANT,MEDFORD,MEDFORD ES,36.8095968,-97.7352023
557,GRANT,MEDFORD,MEDFORD HS,36.8095968,-97.7352023
558,GRANT,POND CREEK-HUNTER,POND CREEK-HUNTER ES,36.668704,-97.797116
559,GRANT,POND CREEK-HUNTER,POND CREEK-HUNTER MS,36.668704,-97.797116
560,GRANT,POND CREEK-HUNTER,POND CREEK-HUNTER HS,36.668704,-97.797116
561,GRANT,DEER CREEK-LAMONT,DEER CREEK-LAMONT ES,36.8096355,-97.5195683
562,GRANT,DEER CREEK-LAMONT,DEER CREEK-LAMONT HS,36.690913,-97.5566223
563,GREER,MANGUM,EDISON ES,34.8821775,-99.5077001
564,GREER,MANGUM,MANGUM MS,34.878068,-99.5065162
565,GREER,MANGUM,MANGUM HS,34.8769204,-99.5066266
566,GREER,GRANITE,GRANITE ES,34.961517,-99.3817382
567,GREER,GRANITE,GRANITE HS,34.961517,-99.3817382
568,HARMON,HOLLIS,HOLLIS ES,34.6825316,-99.9200918
569,HARMON,HOLLIS,HOLLIS MS,34.6825316,-99.9200918
570,HARMON,HOLLIS,HOLLIS HS,34.6825316,-99.9200918
571,HARPER,LAVERNE,LAVERNE ES,36.7099011,-99.8953087
572,HARPER,LAVERNE,LAVERNE HS,36.7099011,-99.8953087
573,HARPER,BUFFALO,BUFFALO ES,36.8337492,-99.6288876
574,HARPER,BUFFALO,BUFFALO HS,36.8337492,-99.6288876
575,HASKELL,WHITEFIELD,WHITEFIELD PUBLIC SCHOOL,35.2536635,-95.2367569
576,HASKELL,KINTA,KINTA ES,35.1177748,-95.2382916
577,HASKELL,KINTA,KINTA HS,35.1177748,-95.2382916
578,HASKELL,STIGLER,STIGLER ES,35.2585696,-95.1271027
579,HASKELL,STIGLER,STIGLER MS,35.2585696,-95.1271027
580,HASKELL,STIGLER,STIGLER HS,35.2585696,-95.1271027
581,HASKELL,MCCURTAIN,MCCURTAIN ES,35.1498196,-94.9707891
582,HASKELL,MCCURTAIN,MCCURTAIN HS,35.1498196,-94.9707891
583,HASKELL,KEOTA,KEOTA ES,35.2571176,-94.9212658
584,HASKELL,KEOTA,KEOTA HS,35.2571176,-94.9212658
585,HUGHES,MOSS,MOSS ES,35.0705541,-96.2312703
586,HUGHES,MOSS,MOSS HS,35.0705541,-96.2312703
587,HUGHES,WETUMKA,WETUMKA ES,35.2339582,-96.2370554
588,HUGHES,WETUMKA,WETUMKA HS,35.2339582,-96.2370554
589,HUGHES,HOLDENVILLE,ETHEL REED ES,35.0849933,-96.3832238
590,HUGHES,HOLDENVILLE,THOMAS IES,35.0849933,-96.3832238
591,HUGHES,HOLDENVILLE,HOLDENVILLE HS,35.0849933,-96.3832238
592,HUGHES,CALVIN,CALVIN ES,34.9661553,-96.2461868
593,HUGHES,CALVIN,CALVIN HS,34.9661553,-96.2461868
594,HUGHES,STUART,STUART ES,34.8974667,-96.0992184
595,HUGHES,STUART,STUART HS,34.8974667,-96.0992184
596,JACKSON,NAVAJO,NAVAJO ES,34.706004,-99.2291982
597,JACKSON,NAVAJO,NAVAJO JHS,34.706004,-99.2291982
598,JACKSON,NAVAJO,NAVAJO HS,34.706004,-99.2291982
599,JACKSON,DUKE,DUKE ES,34.6637369,-99.5687388
600,JACKSON,DUKE,DUKE HS,34.6637369,-99.5687388
601,JACKSON,ALTUS,RIVERS ES,34.6614324,-99.2982427
602,JACKSON,ALTUS,ALTUS INTERMEDIATE SCHOOL,34.6496164,-99.3248166
603,JACKSON,ALTUS,ALTUS EARLY CHILDHOOD CENTER,34.6484254,-99.3235619
604,JACKSON,ALTUS,ALTUS PRIMARY SCHOOL,34.626045,-99.3217867
605,JACKSON,ALTUS,ALTUS ES,34.658247,-99.3406493
606,JACKSON,ALTUS,ALTUS JHS,34.6236851,-99.3162254
607,JACKSON,ALTUS,ALTUS HS,34.6410858,-99.319369
608,JACKSON,OLUSTEE-ELDORADO,OLUSTEE-ELDORADO ES,34.5193245,-99.4339343
609,JACKSON,OLUSTEE-ELDORADO,OLUSTEE-ELDORADO HS,34.5193245,-99.4339343
610,JACKSON,BLAIR,BLAIR ES,34.7807695,-99.3347137
611,JACKSON,BLAIR,BLAIR HS,34.7807695,-99.3347137
612,JEFFERSON,TERRAL,TERRAL PUBLIC SCHOOL,33.8964468,-97.9373029
613,JEFFERSON,RYAN,RYAN ES,34.0247863,-97.9505432
614,JEFFERSON,RYAN,RYAN HS,34.0247863,-97.9505432
615,JEFFERSON,RINGLING,RINGLING ES,34.1796028,-97.5944944
616,JEFFERSON,RINGLING,RINGLING JHS,34.1796028,-97.5944944
617,JEFFERSON,RINGLING,RINGLING HS,34.1796028,-97.5944944
618,JEFFERSON,WAURIKA,WAURIKA ES,34.1691772,-97.986249
619,JEFFERSON,WAURIKA,WAURIKA MS,34.1736966,-97.9934377
620,JEFFERSON,WAURIKA,WAURIKA HS,34.1736966,-97.9934377
621,JOHNSTON,MANNSVILLE,MANNSVILLE PUBLIC SCHOOL,34.1864788,-96.882264
622,JOHNSTON,RAVIA,RAVIA PUBLIC SCHOOL,34.2416957,-96.7526013
623,JOHNSTON,MILL CREEK,MILL CREEK ES,34.4042586,-96.8263981
624,JOHNSTON,MILL CREEK,MILL CREEK HS,34.4042586,-96.8263981
625,JOHNSTON,TISHOMINGO,TISHOMINGO ES,34.2282777,-96.6606887
626,JOHNSTON,TISHOMINGO,TISHOMINGO MS,34.2282777,-96.6606887
627,JOHNSTON,TISHOMINGO,TISHOMINGO HS,34.2282777,-96.6606887
628,JOHNSTON,MILBURN,MILBURN ES,34.2440717,-96.5481384
629,JOHNSTON,MILBURN,MILBURN HS,34.2440717,-96.5481384
630,JOHNSTON,COLEMAN,COLEMAN ES,34.2729984,-96.4258804
631,JOHNSTON,COLEMAN,COLEMAN HS,34.2729984,-96.4258804
632,JOHNSTON,WAPANUCKA,WAPANUCKA ES,34.3711691,-96.4245116
633,JOHNSTON,WAPANUCKA,WAPANUCKA HS,34.3711691,-96.4245116
634,KAY,PECKHAM,PECKHAM PUBLIC SCHOOL,36.884223,-97.176762
635,KAY,KILDARE,KILDARE PUBLIC SCHOOL,36.806827,-97.049969
636,KAY,BLACKWELL,BLACKWELL ES,36.795411,-97.30858
637,KAY,BLACKWELL,BLACKWELL MS,36.7934395,-97.2846182
638,KAY,BLACKWELL,BLACKWELL HS,36.7892246,-97.2816451
639,KAY,PONCA CITY,WASHINGTON PRE KG CENTER,36.7223279,-97.0751638
640,KAY,PONCA CITY,WASHINGTON PRE KG CENTER,36.7223279,-97.0751638
641,KAY,PONCA CITY,LIBERTY ES,36.7185325,-97.0891869
642,KAY,PONCA CITY,LINCOLN ES,36.7045967,-97.1024624
643,KAY,PONCA CITY,UNION ES,36.734582,-97.083412
644,KAY,PONCA CITY,ROOSEVELT ES,36.7100869,-97.0736265
645,KAY,PONCA CITY,E. M. TROUT ES,36.739838,-97.05556
646,KAY,PONCA CITY,WOODLANDS ES,36.7210279,-97.057804
647,KAY,PONCA CITY,GARFIELD ES,36.6982086,-97.0749254
648,KAY,PONCA CITY,PONCA CITY WEST MS,36.7052182,-97.1001935
649,KAY,PONCA CITY,PONCA CITY EAST MS,36.7030072,-97.077103
650,KAY,PONCA CITY,PONCA CITY HS,36.7155077,-97.0769046
651,KAY,TONKAWA,TONKAWA ES,36.6838746,-97.3015547
652,KAY,TONKAWA,TONKAWA MS,36.6817815,-97.3048952
653,KAY,TONKAWA,TONKAWA HS,36.6817815,-97.3048952
654,KAY,NEWKIRK,NEWKIRK ES,36.8822549,-97.0533717
655,KAY,NEWKIRK,NEWKIRK MS,36.8822549,-97.0533717
656,KAY,NEWKIRK,NEWKIRK HS,36.8822549,-97.0533717
657,KINGFISHER,DOVER,DOVER ES,35.9819066,-97.911441
658,KINGFISHER,DOVER,DOVER ES,35.9819066,-97.911441
659,KINGFISHER,DOVER,DOVER HS,35.9819066,-97.911441
660,KINGFISHER,LOMEGA,LOMEGA ES,35.9736295,-98.1162769
661,KINGFISHER,LOMEGA,LOMEGA HS,35.9077762,-98.1925497
662,KINGFISHER,KINGFISHER,GILMOUR ES,35.8448442,-97.9387342
663,KINGFISHER,KINGFISHER,HERITAGE ELEMENTARY,35.8552812,-97.9389759
664,KINGFISHER,KINGFISHER,KINGFISHER MS,35.8552462,-97.940559
665,KINGFISHER,KINGFISHER,KINGFISHER HS,35.8446279,-97.9424314
666,KINGFISHER,HENNESSEY,HENNESSEY LOWER ES,36.1096972,-97.890931
667,KINGFISHER,HENNESSEY,HENNESSEY UPPER ES,36.1095931,-97.8909374
668,KINGFISHER,HENNESSEY,HENNESSEY HS,36.1095288,-97.8909736
669,KINGFISHER,CASHION,CASHION ES,35.8011126,-97.676384
670,KINGFISHER,CASHION,CASHION MS,35.8011126,-97.676384
671,KINGFISHER,CASHION,CASHION MS,35.8011126,-97.676384
672,KINGFISHER,CASHION,CASHION HS,35.8011126,-97.676384
673,KINGFISHER,OKARCHE,OKARCHE ES,35.7254278,-97.974926
674,KINGFISHER,OKARCHE,OKARCHE JHS,35.7254278,-97.974926
675,KINGFISHER,OKARCHE,OKARCHE HS,35.7254278,-97.974926
676,KIOWA,HOBART,HOBART ES,35.0260649,-99.0934081
677,KIOWA,HOBART,HOBART MS,35.0260649,-99.0934081
678,KIOWA,HOBART,HOBART HS,35.0260649,-99.0934081
679,KIOWA,LONE WOLF,LONE WOLF ES,34.9895013,-99.2495245
680,KIOWA,LONE WOLF,LONE WOLF HS,34.9893519,-99.2491794
681,KIOWA,MOUNTAIN VIEW-GOTEBO,MOUNTAIN VIEW-GOTEBO ES,35.0973092,-98.7435065
682,KIOWA,MOUNTAIN VIEW-GOTEBO,MOUNTAIN VIEW-GOTEBO HS,35.0973092,-98.7435065
683,KIOWA,SNYDER,SNYDER ES,34.6590725,-98.9528932
684,KIOWA,SNYDER,JOHN D MOELLER ES,34.6590725,-98.9528932
685,KIOWA,SNYDER,SNYDER HS,34.6590725,-98.9528932
686,LATIMER,WILBURTON,WILBURTON ES,34.9258061,-95.3240566
687,LATIMER,WILBURTON,WILBURTON MS,34.9258061,-95.3240566
688,LATIMER,WILBURTON,WILBURTON HS,34.9258061,-95.3240566
689,LATIMER,RED OAK,RED OAK ES,34.952216,-95.0788533
690,LATIMER,RED OAK,RED OAK HS,34.952216,-95.0788533
691,LATIMER,BUFFALO VALLEY,BUFFALO VALLEY ES,34.7312876,-95.2064961
692,LATIMER,BUFFALO VALLEY,BUFFALO VALLEY HS,34.7312876,-95.2064961
693,LATIMER,PANOLA,PANOLA ES,34.9319341,-95.2132354
694,LATIMER,PANOLA,PANOLA HS,34.9319341,-95.2132354
695,LE FLORE,SHADY POINT,SHADY POINT PUBLIC SCHOOL,35.1302305,-94.6597363
696,LE FLORE,MONROE,MONROE PUBLIC SCHOOL,34.9923748,-94.5152763
697,LE FLORE,HODGEN,HODGEN PUBLIC SCHOOL,34.839506,-94.633318
698,LE FLORE,FANSHAWE,FANSHAWE PUBLIC SCHOOL,34.9514479,-94.9100687
699,LE FLORE,SPIRO,SPIRO ES,35.2401216,-94.6288053
700,LE FLORE,SPIRO,SPIRO MS,35.2401216,-94.6288053
701,LE FLORE,SPIRO,SPIRO HS,35.2401216,-94.6288053
702,LE FLORE,HEAVENER,HEAVENER ES,34.8902621,-94.6017288
703,LE FLORE,HEAVENER,HEAVENER HS,34.8902621,-94.6017288
704,LE FLORE,POCOLA,POCOLA ES,35.259801,-94.4655867
705,LE FLORE,POCOLA,POCOLA MS,35.2603102,-94.4751845
706,LE FLORE,POCOLA,POCOLA HS,35.2603102,-94.4751845
707,LE FLORE,LE FLORE,LEFLORE ES,34.8972577,-94.9830986
708,LE FLORE,LE FLORE,LEFLORE HS,34.8972577,-94.9830986
709,LE FLORE,CAMERON,CAMERON ES,35.1356149,-94.5387201
710,LE FLORE,CAMERON,CAMERON HS,35.1356149,-94.5387201
711,LE FLORE,PANAMA,PANAMA ES,35.176167,-94.6740429
712,LE FLORE,PANAMA,PANAMA MS,35.176167,-94.6740429
713,LE FLORE,PANAMA,PANAMA HS,35.176167,-94.6740429
714,LE FLORE,BOKOSHE,BOKOSHE ES,35.1900971,-94.791894
715,LE FLORE,BOKOSHE,BOKOSHE JHS,35.1900971,-94.791894
716,LE FLORE,BOKOSHE,BOKOSHE HS,35.1900971,-94.791894
717,LE FLORE,POTEAU,POTEAU UPPER ES,35.0628494,-94.6246674
718,LE FLORE,POTEAU,POTEAU PRIMARY ES,35.0628494,-94.6246674
719,LE FLORE,POTEAU,PANSY KIDD MS,35.0628494,-94.6246674
720,LE FLORE,POTEAU,POTEAU HS,35.0628494,-94.6246674
721,LE FLORE,WISTER,WISTER ES,34.9704981,-94.7241533
722,LE FLORE,WISTER,WISTER HS,34.9704981,-94.7241533
723,LE FLORE,TALIHINA,TALIHINA ES,34.7513109,-95.0472963
724,LE FLORE,TALIHINA,TALIHINA JHS,34.7513109,-95.0472963
725,LE FLORE,TALIHINA,TALIHINA HS,34.7513109,-95.0472963
726,LE FLORE,WHITESBORO,WHITESBORO ES,34.6926014,-94.885232
727,LE FLORE,WHITESBORO,WHITESBORO HS,34.6926014,-94.885232
728,LE FLORE,HOWE,HOWE ES,34.950129,-94.63825
729,LE FLORE,HOWE,HOWE HS,34.950129,-94.63825
730,LE FLORE,ARKOMA,SINGLETON ES,35.3534458,-94.4355878
731,LE FLORE,ARKOMA,ARKOMA JHS,35.3534458,-94.4355878
732,LE FLORE,ARKOMA,ARKOMA HS,35.3534458,-94.4355878
733,LINCOLN,WHITE ROCK,WHITE ROCK PUBLIC SCHOOL,35.4492212,-97.053798
734,LINCOLN,CHANDLER,EAST SIDE ES,35.7015183,-96.9016026
735,LINCOLN,CHANDLER,PARK ROAD ES,35.7015183,-96.9016026
736,LINCOLN,CHANDLER,CHANDLER JHS,35.7015183,-96.9016026
737,LINCOLN,CHANDLER,CHANDLER HS,35.7015183,-96.9016026
738,LINCOLN,DAVENPORT,DAVENPORT ES,35.7084643,-96.7665636
739,LINCOLN,DAVENPORT,DAVENPORT HS,35.7084643,-96.7665636
740,LINCOLN,WELLSTON,WELLSTON ES,35.6942561,-97.0654129
741,LINCOLN,WELLSTON,WELLSTON ES,35.6942561,-97.0654129
742,LINCOLN,WELLSTON,WELLSTON MS,35.6942561,-97.0654129
743,LINCOLN,WELLSTON,WELLSTON HS,35.6942561,-97.0654129
744,LINCOLN,STROUD,PARKVIEW ES,35.7539889,-96.6558788
745,LINCOLN,STROUD,STROUD MS,35.7539889,-96.6558788
746,LINCOLN,STROUD,STROUD HS,35.7539889,-96.6558788
747,LINCOLN,MEEKER,MEEKER ES,35.4992118,-96.9018387
748,LINCOLN,MEEKER,MEEKER MS,35.5032238,-96.8925283
749,LINCOLN,MEEKER,MEEKER HS,35.5032238,-96.8925283
750,LINCOLN,PRAGUE,PRAGUE ES,35.4899514,-96.6962149
751,LINCOLN,PRAGUE,PRAGUE MS,35.4899514,-96.6962149
752,LINCOLN,PRAGUE,PRAGUE HS,35.4899514,-96.6962149
753,LINCOLN,CARNEY,CARNEY ES,35.8096665,-97.0164034
754,LINCOLN,CARNEY,CARNEY HS,35.8096665,-97.0164034
755,LINCOLN,AGRA,AGRA ES,35.8950858,-96.8731613
756,LINCOLN,AGRA,AGRA JHS,35.8950858,-96.8731613
757,LINCOLN,AGRA,AGRA HS,35.8950858,-96.8731613
758,LINCOLN,AGRA,AGRA HS,35.8950858,-96.8731613
759,LOGAN,GUTHRIE,FOGARTY ES,35.8868697,-97.4237287
760,LOGAN,GUTHRIE,COTTERAL ES,35.8794021,-97.4493917
761,LOGAN,GUTHRIE,GUTHRIE UPPER ES,35.8925648,-97.4174619
762,LOGAN,GUTHRIE,CENTRAL ES,35.8798712,-97.42187
763,LOGAN,GUTHRIE,GUTHRIE JHS,35.877668,-97.4170967
764,LOGAN,GUTHRIE,GUTHRIE HS,35.892627,-97.424019
765,LOGAN,CRESCENT,CRESCENT ES,35.9531688,-97.5957765
766,LOGAN,CRESCENT,CRESCENT MS,35.9531688,-97.5957765
767,LOGAN,CRESCENT,CRESCENT HS,35.9531688,-97.5957765
768,LOGAN,MULHALL-ORLANDO,MULHALL-ORLANDO ES,36.0640599,-97.4061618
769,LOGAN,MULHALL-ORLANDO,MULHALL-ORLANDO HS,36.148402,-97.377956
770,LOGAN,COYLE,COYLE ES,35.956784,-97.2340793
771,LOGAN,COYLE,COYLE HS,35.956784,-97.2340793
772,LOVE,GREENVILLE,GREENVILLE PUBLIC SCHOOL,34.0062207,-97.1255695
773,LOVE,THACKERVILLE,THACKERVILLE ES,33.7919053,-97.1438572
774,LOVE,THACKERVILLE,THACKERVILLE MS,33.7919053,-97.1438572
775,LOVE,THACKERVILLE,THACKERVILLE HS,33.7919053,-97.1438572
776,LOVE,TURNER,TURNER ES,33.907879,-97.2889056
777,LOVE,TURNER,TURNER HS,33.907879,-97.2889056
778,LOVE,MARIETTA,MARIETTA ES,33.9305693,-97.1211535
779,LOVE,MARIETTA,MARIETTA MS,33.9305693,-97.1211535
780,LOVE,MARIETTA,MARIETTA HS,33.9305693,-97.1211535
781,MAJOR,RINGWOOD,RINGWOOD ES,36.3820886,-98.2465824
782,MAJOR,RINGWOOD,RINGWOOD HS,36.3820886,-98.2465824
783,MAJOR,ALINE-CLEO,ALINE-CLEO ES,36.408263,-98.4416433
784,MAJOR,ALINE-CLEO,ALINE-CLEO HS,36.5095357,-98.4509998
785,MAJOR,FAIRVIEW,CORNELSEN ES,36.2687431,-98.4754152
786,MAJOR,FAIRVIEW,CHAMBERLAIN MS,36.2687431,-98.4754152
787,MAJOR,FAIRVIEW,FAIRVIEW HS,36.2687431,-98.4754152
788,MAJOR,CIMARRON,CIMARRON ES,36.3892351,-98.0891022
789,MAJOR,CIMARRON,CIMARRON HS,36.3892351,-98.0891022
790,MARSHALL,MADILL,MADILL ES,34.0863869,-96.7777322
791,MARSHALL,MADILL,MADILL ES,34.0863869,-96.7777322
792,MARSHALL,MADILL,MADILL MS,34.0863869,-96.7777322
793,MARSHALL,MADILL,MADILL HS,34.0863869,-96.7777322
794,MARSHALL,KINGSTON,KINGSTON ES,33.9994861,-96.7197041
795,MARSHALL,KINGSTON,KINGSTON MS,33.9994861,-96.7197041
796,MARSHALL,KINGSTON,KINGSTON HS,33.9994861,-96.7197041
797,MAYES,WICKLIFFE,WICKLIFFE PUBLIC SCHOOL,36.3353974,-95.0561918
798,MAYES,OSAGE,OSAGE PUBLIC SCHOOL,36.3079926,-95.3983818
799,MAYES,PRYOR,LINCOLN ES,36.305159,-95.317651
800,MAYES,PRYOR,JEFFERSON ES,36.305159,-95.317651
801,MAYES,PRYOR,ROOSEVELT ES,36.305159,-95.317651
802,MAYES,PRYOR,PRYOR JHS,36.305159,-95.317651
803,MAYES,PRYOR,PRYOR HS,36.305159,-95.317651
804,MAYES,ADAIR,BERNITA HUGHES ES,36.4358809,-95.2731062
805,MAYES,ADAIR,ADAIR MS,36.4358809,-95.2731062
806,MAYES,ADAIR,ADAIR HS,36.4358809,-95.2731062
807,MAYES,SALINA,SALINA ES,36.2921873,-95.1529044
808,MAYES,SALINA,SALINA MS,36.2921873,-95.1529044
809,MAYES,SALINA,SALINA HS,36.2921873,-95.1529044
810,MAYES,LOCUST GROVE,LOCUST GROVE EARLY LRNING CTR,36.2013562,-95.1599896
811,MAYES,LOCUST GROVE,LOCUST GROVE UPPER ES,36.2013562,-95.1599896
812,MAYES,LOCUST GROVE,LOCUST GROVE MS,36.2013562,-95.1599896
813,MAYES,LOCUST GROVE,LOCUST GROVE HS,36.2013562,-95.1599896
814,MAYES,CHOUTEAU-MAZIE,CHOUTEAU ES,36.1882025,-95.3446057
815,MAYES,CHOUTEAU-MAZIE,MAZIE ES,36.1882025,-95.3446057
816,MAYES,CHOUTEAU-MAZIE,CHOUTEAU-MAZIE EC CTR,36.1882025,-95.3446057
817,MAYES,CHOUTEAU-MAZIE,CHOUTEAU-MAZIE MS,36.1882025,-95.3446057
818,MAYES,CHOUTEAU-MAZIE,CHOUTEAU-MAZIE HS,36.1882025,-95.3446057
819,MCCLAIN,NEWCASTLE,NEWCASTLE ES,35.2481697,-97.6004873
820,MCCLAIN,NEWCASTLE,NEWCASTLE EARLY CHILDHOOD CTR,35.2481697,-97.6004873
821,MCCLAIN,NEWCASTLE,NEWCASTLE MS,35.2481697,-97.6004873
822,MCCLAIN,NEWCASTLE,NEWCASTLE HS,35.2481697,-97.6004873
823,MCCLAIN,DIBBLE,DIBBLE ES,35.1478718,-97.6524121
824,MCCLAIN,DIBBLE,DIBBLE MS,35.1478718,-97.6524121
825,MCCLAIN,DIBBLE,DIBBLE HS,35.1478718,-97.6524121
826,MCCLAIN,WASHINGTON,WASHINGTON ES,35.0604316,-97.4842514
827,MCCLAIN,WASHINGTON,WASHINGTON MS,35.0604316,-97.4842514
828,MCCLAIN,WASHINGTON,WASHINGTON HS,35.0604316,-97.4842514
829,MCCLAIN,WAYNE,WAYNE ES,34.9178096,-97.3198125
830,MCCLAIN,WAYNE,WAYNE MS,34.9178096,-97.3198125
831,MCCLAIN,WAYNE,WAYNE HS,34.9178096,-97.3198125
832,MCCLAIN,PURCELL,PURCELL ES,35.02214,-97.3713091
833,MCCLAIN,PURCELL,PURCELL INTERMEDIATE SCHOOL,35.0209357,-97.3709266
834,MCCLAIN,PURCELL,PURCELL JHS,35.0109224,-97.3657519
835,MCCLAIN,PURCELL,PURCELL HS,35.0363043,-97.3683252
836,MCCLAIN,BLANCHARD,BLANCHARD ES,35.1369683,-97.6531188
837,MCCLAIN,BLANCHARD,BLANCHARD INTERMEDIATE ES,35.1369683,-97.6531188
838,MCCLAIN,BLANCHARD,BLANCHARD MS,35.1369683,-97.6531188
839,MCCLAIN,BLANCHARD,BLANCHARD HS,35.1369683,-97.6531188
840,MCCURTAIN,FOREST GROVE,FOREST GROVE PUBLIC SCHOOL,33.9543541,-94.9403144
841,MCCURTAIN,LUKFATA,LUKFATA PUBLIC SCHOOL,34.0194122,-94.7837895
842,MCCURTAIN,GLOVER,GLOVER PUBLIC SCHOOL,34.0686832,-94.8790291
843,MCCURTAIN,DENISON,DENISON PUBLIC SCHOOL,33.8954266,-94.7901813
844,MCCURTAIN,HOLLY CREEK,HOLLY CREEK PUBLIC SCHOOL,34.145512,-94.7246738
845,MCCURTAIN,IDABEL,CENTRAL ES,33.8982103,-94.8251908
846,MCCURTAIN,IDABEL,IDABEL PRIMARY SOUTH ES,33.8982103,-94.8251908
847,MCCURTAIN,IDABEL,IDABEL MS,33.8982103,-94.8251908
848,MCCURTAIN,IDABEL,IDABEL HS,33.8982103,-94.8251908
849,MCCURTAIN,HAWORTH,HAWORTH ES,33.845278,-94.6504636
850,MCCURTAIN,HAWORTH,HAWORTH MS,33.845278,-94.6504636
851,MCCURTAIN,HAWORTH,HAWORTH MS,33.845278,-94.6504636
852,MCCURTAIN,HAWORTH,HAWORTH HS,33.845278,-94.6504636
853,MCCURTAIN,VALLIANT,VALLIANT ES,34.0052467,-95.0860619
854,MCCURTAIN,VALLIANT,VALLIANT MS,34.0052467,-95.0860619
855,MCCURTAIN,VALLIANT,VALLIANT HS,34.0052467,-95.0860619
856,MCCURTAIN,EAGLETOWN,EAGLETOWN ES,34.0444083,-94.589587
857,MCCURTAIN,EAGLETOWN,EAGLETOWN HS,34.0444083,-94.589587
858,MCCURTAIN,SMITHVILLE,SMITHVILLE ES,34.4667705,-94.6438316
859,MCCURTAIN,SMITHVILLE,SMITHVILLE MS,34.4667705,-94.6438316
860,MCCURTAIN,SMITHVILLE,SMITHVILLE HS,34.4667705,-94.6438316
861,MCCURTAIN,WRIGHT CITY,WRIGHT CITY ES,34.0686257,-95.0062843
862,MCCURTAIN,WRIGHT CITY,WRIGHT CITY JHS,34.0686257,-95.0062843
863,MCCURTAIN,WRIGHT CITY,WRIGHT CITY HS,34.0686257,-95.0062843
864,MCCURTAIN,BATTIEST,BATTIEST ES,34.0292764,-94.7391045
865,MCCURTAIN,BATTIEST,BATTIEST HS,34.3936866,-94.9247101
866,MCCURTAIN,BROKEN BOW,BENNETT ES,34.0315541,-94.7371868
867,MCCURTAIN,BROKEN BOW,DIERKS ES,34.0315541,-94.7371868
868,MCCURTAIN,BROKEN BOW,DIERKS ES,34.0315541,-94.7371868
869,MCCURTAIN,BROKEN BOW,RECTOR JOHNSON MS,34.0315541,-94.7371868
870,MCCURTAIN,BROKEN BOW,RECTOR JOHNSON MS,34.0315541,-94.7371868
871,MCCURTAIN,BROKEN BOW,BROKEN BOW HS,34.0315541,-94.7371868
872,MCINTOSH,RYAL,RYAL PUBLIC SCHOOL,35.398902,-95.9807655
873,MCINTOSH,STIDHAM,STIDHAM PUBLIC SCHOOL,35.3754648,-95.6990604
874,MCINTOSH,EUFAULA,EUFAULA ES,35.2879035,-95.5883819
875,MCINTOSH,EUFAULA,EUFAULA MS,35.28838,-95.6082093
876,MCINTOSH,EUFAULA,EUFAULA HS,35.280647,-95.584114
877,MCINTOSH,CHECOTAH,MARSHALL ES,35.4710697,-95.5219709
878,MCINTOSH,CHECOTAH,CHECOTAH INTERMEDIATE ES,35.4710697,-95.5219709
879,MCINTOSH,CHECOTAH,CHECOTAH MS,35.4710697,-95.5219709
880,MCINTOSH,CHECOTAH,CHECOTAH HS,35.4596984,-95.5356386
881,MCINTOSH,MIDWAY,MIDWAY ES,35.4929084,-95.6720907
882,MCINTOSH,MIDWAY,MIDWAY HS,35.5559295,-95.6510448
883,MCINTOSH,HANNA,HANNA ES,35.2025651,-95.8900911
884,MCINTOSH,HANNA,HANNA HS,35.2025651,-95.8900911
885,MURRAY,SULPHUR,SULPHUR ES,34.5082243,-96.9777093
886,MURRAY,SULPHUR,SULPHUR INTERMEDIATE ES,34.5082243,-96.9777093
887,MURRAY,SULPHUR,SULPHUR MS,34.5082243,-96.9777093
888,MURRAY,SULPHUR,SULPHUR HS,34.5082243,-96.9777093
889,MURRAY,DAVIS,DAVIS ES,34.5010284,-97.1165643
890,MURRAY,DAVIS,DAVIS MS,34.5010284,-97.1165643
891,MURRAY,DAVIS,DAVIS HS,34.5010284,-97.1165643
892,MUSKOGEE,WAINWRIGHT,WAINWRIGHT PUBLIC SCHOOL,35.3589534,-95.2656199
893,MUSKOGEE,HASKELL,MARY WHITE ES,35.8202837,-95.6797987
894,MUSKOGEE,HASKELL,HASKELL MS,35.8258189,-95.684934
895,MUSKOGEE,HASKELL,HASKELL HS,35.8258189,-95.684934
896,MUSKOGEE,FORT GIBSON,FORT GIBSON INTERMEDIATE ES,35.792364,-95.2396201
897,MUSKOGEE,FORT GIBSON,FORT GIBSON EARLY LRNING CTR,35.792364,-95.2396201
898,MUSKOGEE,FORT GIBSON,FORT GIBSON MS,35.792364,-95.2396201
899,MUSKOGEE,FORT GIBSON,FORT GIBSON HS,35.792364,-95.2396201
900,MUSKOGEE,WEBBERS FALLS,WEBBERS FALLS ES,35.5120182,-95.1285521
901,MUSKOGEE,WEBBERS FALLS,WEBBERS FALLS HS,35.5120182,-95.1285521
902,MUSKOGEE,OKTAHA,OKTAHA ES,35.5760437,-95.477349
903,MUSKOGEE,OKTAHA,OKTAHA HS,35.5760437,-95.477349
904,MUSKOGEE,MUSKOGEE,CHEROKEE ES,35.7450524,-95.3937607
905,MUSKOGEE,MUSKOGEE,CREEK ES,35.7380279,-95.3203256
906,MUSKOGEE,MUSKOGEE,BENJAMIN FRANKLIN SCIENCE ACAD,35.7536114,-95.4388849
907,MUSKOGEE,MUSKOGEE,GRANT-FOREMAN ES,35.7333014,-95.3362906
908,MUSKOGEE,MUSKOGEE,IRVING ES,35.7544685,-95.3515154
909,MUSKOGEE,MUSKOGEE,PERSHING ES,35.7575817,-95.4305613
910,MUSKOGEE,MUSKOGEE,SADLER ARTS ACADEMY,35.758898,-95.3690091
911,MUSKOGEE,MUSKOGEE,TONY GOETZ ES,35.7485787,-95.3400197
912,MUSKOGEE,MUSKOGEE,WHITTIER ES,35.7383422,-95.3500086
913,MUSKOGEE,MUSKOGEE,MUSKOGEE EC CTR,35.7552414,-95.3780877
914,MUSKOGEE,MUSKOGEE,ALICE ROBERTSON JHS,35.7445676,-95.3466325
915,MUSKOGEE,MUSKOGEE,MUSKOGEE HS,35.7703056,-95.3230657
916,MUSKOGEE,HILLDALE,HILLDALE LOWER ES,35.7105549,-95.3709631
917,MUSKOGEE,HILLDALE,HILLDALE UPPER ES,35.7105549,-95.3709631
918,MUSKOGEE,HILLDALE,HILLDALE MS,35.7105549,-95.3709631
919,MUSKOGEE,HILLDALE,HILLDALE HS,35.7105549,-95.3709631
920,MUSKOGEE,BRAGGS,BRAGGS ES,35.6658236,-95.2001756
921,MUSKOGEE,BRAGGS,BRAGGS HS,35.6658236,-95.2001756
922,MUSKOGEE,WARNER,WARNER ES,35.49574,-95.305513
923,MUSKOGEE,WARNER,WARNER HS,35.49574,-95.305513
924,MUSKOGEE,PORUM,PORUM ES,35.3562083,-95.2655231
925,MUSKOGEE,PORUM,PORUM HS,35.3562083,-95.2655231
926,NOBLE,PERRY,PERRY ES,36.2977547,-97.3009106
927,NOBLE,PERRY,PERRY JHS,36.2886316,-97.292177
928,NOBLE,PERRY,PERRY HS,36.2893628,-97.2918416
929,NOBLE,BILLINGS,BILLINGS ES,36.5312026,-97.4447271
930,NOBLE,BILLINGS,BILLINGS HS,36.5312026,-97.4447271
931,NOBLE,FRONTIER,FRONTIER ES,36.4591525,-97.1777308
932,NOBLE,FRONTIER,FRONTIER HS,36.4591525,-97.1777308
933,NOBLE,MORRISON,MORRISON ES,36.2917105,-97.0207778
934,NOBLE,MORRISON,MORRISON MS,36.2958554,-97.0084794
935,NOBLE,MORRISON,MORRISON HS,36.2958554,-97.0084794
936,NOWATA,OKLAHOMA UNION,OKLAHOMA UNION ES,36.9945249,-95.6202551
937,NOWATA,OKLAHOMA UNION,OKLAHOMA UNION MS,36.9945249,-95.6202551
938,NOWATA,OKLAHOMA UNION,OKLAHOMA UNION HS,36.9945249,-95.6202551
939,NOWATA,NOWATA,NOWATA ES,36.6968823,-95.6449704
940,NOWATA,NOWATA,NOWATA MS,36.6968823,-95.6449704
941,NOWATA,NOWATA,NOWATA HS,36.6968823,-95.6449704
942,NOWATA,SOUTH COFFEYVILLE,SOUTH COFFEYVILLE ES,36.994341,-95.6200321
943,NOWATA,SOUTH COFFEYVILLE,SOUTH COFFEYVILLE HS,36.994341,-95.6200321
944,OKFUSKEE,BEARDEN,BEARDEN PUBLIC SCHOOL,35.591967,-96.3879725
945,OKFUSKEE,MASON,MASON ES,35.5668319,-96.3515672
946,OKFUSKEE,MASON,MASON HS,35.5668319,-96.3515672
947,OKFUSKEE,PADEN,PADEN ES,35.506101,-96.568216
948,OKFUSKEE,PADEN,PADEN HS,35.506101,-96.568216
949,OKFUSKEE,OKEMAH,OAKES ES,35.4315794,-96.3194982
950,OKFUSKEE,OKEMAH,OKEMAH NOBLE CTR,35.4266899,-96.3022663
951,OKFUSKEE,OKEMAH,OKEMAH MS,35.4266899,-96.3022663
952,OKFUSKEE,OKEMAH,OKEMAH HS,35.4275077,-96.2917934
953,OKFUSKEE,WELEETKA,SPENCE MEMORIAL ES,35.3358034,-96.1398965
954,OKFUSKEE,WELEETKA,WELEETKA JHS,35.3358034,-96.1398965
955,OKFUSKEE,WELEETKA,WELEETKA HS,35.3358034,-96.1398965
956,OKFUSKEE,GRAHAM-DUSTIN,GRAHAM ES,35.337433,-96.1015512
957,OKFUSKEE,GRAHAM-DUSTIN,DUSTIN ES,35.337433,-96.1015512
958,OKFUSKEE,GRAHAM-DUSTIN,GRAHAM HS,35.337433,-96.1015512
959,OKLAHOMA,OAKDALE,OAKDALE PUBLIC SCHOOL,35.5809421,-97.4223221
960,OKLAHOMA,OAKDALE,OAKDALE PUBLIC SCHOOL,35.5809421,-97.4223221
961,OKLAHOMA,OAKDALE,OAKDALE PUBLIC SCHOOL,35.5809421,-97.4223221
962,OKLAHOMA,CRUTCHO,CRUTCHO PUBLIC SCHOOL,35.4938932,-97.4067908
963,OKLAHOMA,OKC CHARTER: INDEPENDENCE MS,INDEPENDENCE CHARTER MS,35.5379855,-97.5733559
964,OKLAHOMA,OKC CHARTER: SEEWORTH ACADEMY,JUSTICE AW SEEWORTH ACADEMY ES,35.5978976,-97.4957378
965,OKLAHOMA,OKC CHARTER: SEEWORTH ACADEMY,JUSTICE AW SEEWORTH ACADEMY ES,35.5978976,-97.4957378
966,OKLAHOMA,OKC CHARTER: SEEWORTH ACADEMY,JUSTICE AW SEEWORTH ACADEMY ES,35.5978976,-97.4957378
967,OKLAHOMA,OKC CHARTER: SEEWORTH ACADEMY,JUSTICE AW SEEWORTH ACADEMY HS,35.5978976,-97.4957378
968,OKLAHOMA,OKC CHARTER: HUPFELD/W VILLAGE,HUPFELD ACAD./WESTERN VILLAGE,35.578802,-97.5399122
969,OKLAHOMA,OKC CHARTER: HARDING CHARTER,HARDING CHARTER PREPARATORY HS,35.5036423,-97.5268396
970,OKLAHOMA,OKC CHARTER: HARDING FINE ARTS,HARDING FINE ARTS ACADEMY,35.5240855,-97.5257395
971,OKLAHOMA,OKC CHARTER: KIPP REACH COLL.,KIPP REACH COLLEGE PREPARATORY,35.47,-97.52
972,OKLAHOMA,OKC CHARTER: KIPP REACH COLL.,KIPP OKC SOUTH COMMUNITY PREP,35.47,-97.52
973,OKLAHOMA,OKC CHARTER: KIPP REACH COLL.,KIPP OKC SOUTH COMMUNITY PREP,35.47,-97.52
974,OKLAHOMA,OKC CHARTER SANTA FE SOUTH,SANTA FE SOUTH EARLY CHILDHOOD,35.4203375,-97.5518874
975,OKLAHOMA,OKC CHARTER SANTA FE SOUTH,SANTA FE SOUTH SPERO ES,35.4165279,-97.5121845
976,OKLAHOMA,OKC CHARTER SANTA FE SOUTH,SANTA FE S PATHWAYS MID COLLEG,35.3876286,-97.5701254
977,OKLAHOMA,OKC CHARTER SANTA FE SOUTH,SANTA FE SOUTH HS,35.5739462,-97.5688965
978,OKLAHOMA,OKC CHARTER SANTA FE SOUTH,SANTA FE SOUTH MS,35.418025,-97.5119994
979,OKLAHOMA,OKC CHARTER SANTA FE SOUTH,SANTA FE SOUTH PENN ES,35.4122309,-97.5485045
980,OKLAHOMA,OKC CHARTER SANTA FE SOUTH,SANTA FE SOUTH HILLS ES,35.426695,-97.504596
981,OKLAHOMA,OKC CHARTER: DOVE SCIENCE ACAD,DOVE SCIENCE ACADEMY ES,35.5209433,-97.5041737
982,OKLAHOMA,OKC CHARTER: DOVE SCIENCE ACAD,DOVE SCIENCE ACADEMY MS,35.4935371,-97.5284305
983,OKLAHOMA,OKC CHARTER: DOVE SCIENCE ACAD,DOVE SCIENCE ACADEMY HS,35.4935371,-97.5284305
984,OKLAHOMA,ASTEC CHARTERS,ASTEC CHARTER MS,35.494113,-97.554485
985,OKLAHOMA,ASTEC CHARTERS,ASTEC CHARTER HS,35.494113,-97.554485
986,OKLAHOMA,JOHN W REX CHARTER ELEMENTARY,JOHN W REX CHARTER ELEMENTARY,35.4658987,-97.5218852
987,OKLAHOMA,EPIC BLENDED LEARNING CHARTER,EPIC BLENDED CHARTER OKC ES,35.5951918,-97.5942063
988,OKLAHOMA,EPIC BLENDED LEARNING CHARTER,EPIC BLENDED CHARTER TULSA ES,35.5951918,-97.5942063
989,OKLAHOMA,EPIC BLENDED LEARNING CHARTER,EPIC BLENDED CHARTER OKC MS,35.5951918,-97.5942063
990,OKLAHOMA,EPIC BLENDED LEARNING CHARTER,EPIC BLENDED CHARTER TULSA MS,35.5951918,-97.5942063
991,OKLAHOMA,EPIC BLENDED LEARNING CHARTER,EPIC BLENDED CHARTER OKC HS,35.5951918,-97.5942063
992,OKLAHOMA,EPIC BLENDED LEARNING CHARTER,EPIC BLENDED CHARTER TULSA HS,35.5951918,-97.5942063
993,OKLAHOMA,PUTNAM CITY,APOLLO ES,35.4888243,-97.6285369
994,OKLAHOMA,PUTNAM CITY,CENTRAL ES,35.5113788,-97.6154278
995,OKLAHOMA,PUTNAM CITY,ARBOR GROVE ES,35.5191796,-97.5937178
996,OKLAHOMA,PUTNAM CITY,CORONADO HEIGHTS ES,35.5299938,-97.5893181
997,OKLAHOMA,PUTNAM CITY,DENNIS ES,35.5872445,-97.6312999
998,OKLAHOMA,PUTNAM CITY,RALPH DOWNS ES,35.5810772,-97.6461421
999,OKLAHOMA,PUTNAM CITY,HARVEST HILLS ES,35.5763844,-97.6603915
1000,OKLAHOMA,PUTNAM CITY,HILLDALE ES,35.487363,-97.6072807
1001,OKLAHOMA,PUTNAM CITY,KIRKLAND EARLY CHILDHOOD CTR,35.5322881,-97.573944
1002,OKLAHOMA,PUTNAM CITY,LAKE PARK ES,35.5013541,-97.6603213
1003,OKLAHOMA,PUTNAM CITY,NORTHRIDGE ES,35.5572548,-97.6664256
1004,OKLAHOMA,PUTNAM CITY,OVERHOLSER ES,35.5072137,-97.6524374
1005,OKLAHOMA,PUTNAM CITY,ROLLINGWOOD ES,35.5360959,-97.6121531
1006,OKLAHOMA,PUTNAM CITY,TULAKES ES,35.5396002,-97.6297351
1007,OKLAHOMA,PUTNAM CITY,WESTERN OAKS ES,35.4925567,-97.6393624
1008,OKLAHOMA,PUTNAM CITY,WILEY POST ES,35.5647425,-97.6341965
1009,OKLAHOMA,PUTNAM CITY,WILL ROGERS ES,35.5956061,-97.6600926
1010,OKLAHOMA,PUTNAM CITY,WINDSOR HILLS ES,35.4991172,-97.6110224
1011,OKLAHOMA,PUTNAM CITY,JAMES L. CAPPS MS,35.5121799,-97.6143
1012,OKLAHOMA,PUTNAM CITY,COOPER MS,35.5429645,-97.6565488
1013,OKLAHOMA,PUTNAM CITY,HEFNER MS,35.557427,-97.6193703
1014,OKLAHOMA,PUTNAM CITY,MAYFIELD MS,35.4847424,-97.6137091
1015,OKLAHOMA,PUTNAM CITY,WESTERN OAKS MS,35.492416,-97.6395075
1016,OKLAHOMA,PUTNAM CITY,PUTNAM CITY HS,35.5216631,-97.6083267
1017,OKLAHOMA,PUTNAM CITY,PUTNAM CITY NORTH HS,35.589694,-97.6376593
1018,OKLAHOMA,PUTNAM CITY,PUTNAM CITY WEST HS,35.4921104,-97.6617222
1019,OKLAHOMA,LUTHER,LUTHER ES,35.6580536,-97.1942289
1020,OKLAHOMA,LUTHER,LUTHER MS,35.6580536,-97.1942289
1021,OKLAHOMA,LUTHER,LUTHER HS,35.6580536,-97.1942289
1022,OKLAHOMA,LUTHER,LUTHER HS,35.6580536,-97.1942289
1023,OKLAHOMA,CHOCTAW-NICOMA PARK,INDIAN MERIDIAN ES,35.4469444,-97.2483493
1024,OKLAHOMA,CHOCTAW-NICOMA PARK,CHOCTAW ES,35.4997004,-97.2713523
1025,OKLAHOMA,CHOCTAW-NICOMA PARK,NICOMA PARK ES,35.4802706,-97.3260876
1026,OKLAHOMA,CHOCTAW-NICOMA PARK,NICOMA PARK INTERMEDIATE ES,35.4816612,-97.3261089
1027,OKLAHOMA,CHOCTAW-NICOMA PARK,JAMES GRIFFITH INTERMEDIATE ES,35.448715,-97.24836
1028,OKLAHOMA,CHOCTAW-NICOMA PARK,L. W. WESTFALL ES,35.4795473,-97.2965185
1029,OKLAHOMA,CHOCTAW-NICOMA PARK,NICOMA PARK MS,35.4826334,-97.3274911
1030,OKLAHOMA,CHOCTAW-NICOMA PARK,CHOCTAW MS,35.4991316,-97.2704278
1031,OKLAHOMA,CHOCTAW-NICOMA PARK,CHOCTAW HS,35.4781373,-97.2792787
1032,OKLAHOMA,DEER CREEK,DEER CREEK ES,35.6367534,-97.6062415
1033,OKLAHOMA,DEER CREEK,PRAIRIE VALE ES,35.7007874,-97.5482286
1034,OKLAHOMA,DEER CREEK,ROSE UNION ES,35.6947856,-97.6105467
1035,OKLAHOMA,DEER CREEK,GROVE VALLEY ES,35.6667357,-97.579037
1036,OKLAHOMA,DEER CREEK,DEER CREEK INTERMEDIATE SCHOOL,35.687887,-97.6207455
1037,OKLAHOMA,DEER CREEK,SPRING CREEK ES,35.627359,-97.6365057
1038,OKLAHOMA,DEER CREEK,DEER CREEK MS,35.7111028,-97.5608604
1039,OKLAHOMA,DEER CREEK,DEER CREEK HS,35.682642,-97.624243
1040,OKLAHOMA,HARRAH,RUSSELL BABB ES,35.4792651,-97.1614339
1041,OKLAHOMA,HARRAH,CLARA REYNOLDS ES,35.4741971,-97.1693456
1042,OKLAHOMA,HARRAH,VIRGINIA SMITH ES,35.4793811,-97.1730913
1043,OKLAHOMA,HARRAH,HARRAH MS,35.4892218,-97.166277
1044,OKLAHOMA,HARRAH,HARRAH MS,35.4892218,-97.166277
1045,OKLAHOMA,HARRAH,HARRAH HS,35.4867369,-97.1707008
1046,OKLAHOMA,JONES,JONES ES,35.5585,-97.3033665
1047,OKLAHOMA,JONES,JONES MS,35.5510869,-97.2468263
1048,OKLAHOMA,JONES,JONES HS,35.5615004,-97.2902092
1049,OKLAHOMA,EDMOND,CLEGERN ES,35.6481525,-97.4766999
1050,OKLAHOMA,EDMOND,RUSSELL DOUGHERTY ES,35.6555619,-97.4786259
1051,OKLAHOMA,EDMOND,IDA FREEMAN ES,35.6573517,-97.490803
1052,OKLAHOMA,EDMOND,NORTHERN HILLS ES,35.6616146,-97.4659436
1053,OKLAHOMA,EDMOND,ORVIS RISNER ES,35.6279719,-97.4754065
1054,OKLAHOMA,EDMOND,SUNSET ES,35.6471684,-97.4890121
1055,OKLAHOMA,EDMOND,WILL ROGERS ES,35.6460897,-97.4647605
1056,OKLAHOMA,EDMOND,CHISHOLM ES,35.6226671,-97.4501711
1057,OKLAHOMA,EDMOND,JOHN ROSS ES,35.6724989,-97.48492
1058,OKLAHOMA,EDMOND,CHARLES HASKELL ES,35.626984,-97.5425375
1059,OKLAHOMA,EDMOND,CROSS TIMBERS ES,35.7045186,-97.4947357
1060,OKLAHOMA,EDMOND,WASHINGTON IRVING ES,35.6559756,-97.5331848
1061,OKLAHOMA,EDMOND,ANGIE DEBO ES,35.6333688,-97.5661719
1062,OKLAHOMA,EDMOND,WEST FIELD ES,35.650267,-97.5510016
1063,OKLAHOMA,EDMOND,CENTENNIAL ES,35.6996519,-97.4414812
1064,OKLAHOMA,EDMOND,FRONTIER ES,35.677032,-97.5473254
1065,OKLAHOMA,EDMOND,HERITAGE ES,35.7095981,-97.4738064
1066,OKLAHOMA,EDMOND,CIMARRON MS,35.6194987,-97.4613655
1067,OKLAHOMA,EDMOND,CHEYENNE MS,35.6832352,-97.4991886
1068,OKLAHOMA,EDMOND,SEQUOYAH MS,35.6680198,-97.4653519
1069,OKLAHOMA,EDMOND,SUMMIT MS,35.6251798,-97.5414667
1070,OKLAHOMA,EDMOND,CENTRAL MS,35.6449524,-97.4727989
1071,OKLAHOMA,EDMOND,HEARTLAND MS,35.6763796,-97.5480272
1072,OKLAHOMA,EDMOND,MEMORIAL HS,35.6382902,-97.4673221
1073,OKLAHOMA,EDMOND,NORTH HS,35.668496,-97.4852648
1074,OKLAHOMA,EDMOND,SANTA FE HS,35.6417492,-97.5090637
1075,OKLAHOMA,MILLWOOD,MILLWOOD ES,35.5401139,-97.4762351
1076,OKLAHOMA,MILLWOOD,MILLWOOD HS,35.5403134,-97.4760357
1077,OKLAHOMA,WESTERN HEIGHTS,COUNCIL GROVE ES,35.4723851,-97.6531679
1078,OKLAHOMA,WESTERN HEIGHTS,JOHN GLENN ES,35.399407,-97.5737323
1079,OKLAHOMA,WESTERN HEIGHTS,GREENVALE ES,35.4767493,-97.6456808
1080,OKLAHOMA,WESTERN HEIGHTS,WINDS WEST ES,35.4252314,-97.660831
1081,OKLAHOMA,WESTERN HEIGHTS,BRIDGESTONE ES,35.4486342,-97.6529396
1082,OKLAHOMA,WESTERN HEIGHTS,WESTERN HEIGHTS MS,35.4219535,-97.6616808
1083,OKLAHOMA,WESTERN HEIGHTS,WESTERN HEIGHTS 9TH GRADE CTR,35.4217002,-97.6592936
1084,OKLAHOMA,WESTERN HEIGHTS,WESTERN HEIGHTS HS,35.4217002,-97.6592936
1085,OKLAHOMA,MIDWEST CITY-DEL CITY,BARNES ES,35.407223,-97.341317
1086,OKLAHOMA,MIDWEST CITY-DEL CITY,CLEVELAND BAILEY ES,35.4734799,-97.4123372
1087,OKLAHOMA,MIDWEST CITY-DEL CITY,COUNTRY ESTATES ES,35.4553844,-97.3958948
1088,OKLAHOMA,MIDWEST CITY-DEL CITY,DEL CITY ES,35.4409427,-97.4369806
1089,OKLAHOMA,MIDWEST CITY-DEL CITY,EPPERLY HEIGHTS ES,35.4407766,-97.4490451
1090,OKLAHOMA,MIDWEST CITY-DEL CITY,PLEASANT HILL EC CTR,35.5072165,-97.4388985
1091,OKLAHOMA,MIDWEST CITY-DEL CITY,HIGHLAND PARK ES,35.4128496,-97.444384
1092,OKLAHOMA,MIDWEST CITY-DEL CITY,RIDGECREST ES,35.4710411,-97.3986321
1093,OKLAHOMA,MIDWEST CITY-DEL CITY,SOLDIER CREEK ES,35.4500578,-97.3700084
1094,OKLAHOMA,MIDWEST CITY-DEL CITY,STEED ES,35.4588283,-97.3821714
1095,OKLAHOMA,MIDWEST CITY-DEL CITY,TINKER ES,35.4198443,-97.4177031
1096,OKLAHOMA,MIDWEST CITY-DEL CITY,TOWNSEND ES,35.4260012,-97.4364798
1097,OKLAHOMA,MIDWEST CITY-DEL CITY,PARKVIEW ES,35.4090347,-97.4294807
1098,OKLAHOMA,MIDWEST CITY-DEL CITY,SCHWARTZ ES,35.3632326,-97.3175995
1099,OKLAHOMA,MIDWEST CITY-DEL CITY,MIDWEST CITY ES,35.4438752,-97.3884268
1100,OKLAHOMA,MIDWEST CITY-DEL CITY,CARL ALBERT MS,35.4396088,-97.3544113
1101,OKLAHOMA,MIDWEST CITY-DEL CITY,DEL CREST MS,35.4575703,-97.430486
1102,OKLAHOMA,MIDWEST CITY-DEL CITY,JARMAN MS,35.440948,-97.4002239
1103,OKLAHOMA,MIDWEST CITY-DEL CITY,KERR MS,35.4406781,-97.4277837
1104,OKLAHOMA,MIDWEST CITY-DEL CITY,MONRONEY MS,35.4627779,-97.3929789
1105,OKLAHOMA,MIDWEST CITY-DEL CITY,CARL ALBERT HS,35.4448293,-97.3539237
1106,OKLAHOMA,MIDWEST CITY-DEL CITY,DEL CITY HS,35.4451973,-97.4405459
1107,OKLAHOMA,MIDWEST CITY-DEL CITY,MIDWEST CITY HS,35.4541855,-97.399364
1108,OKLAHOMA,MIDWEST CITY-DEL CITY,TECHNOLOGY CENTER,35.4549478,-97.4022847
1109,OKLAHOMA,CROOKED OAK,CENTRAL OAK ES,35.4507674,-97.4759624
1110,OKLAHOMA,CROOKED OAK,CROOKED OAK MS,35.4507674,-97.4759624
1111,OKLAHOMA,CROOKED OAK,CROOKED OAK HS,35.4507674,-97.4759624
1112,OKLAHOMA,BETHANY,EARL HARRIS ES,35.5159411,-97.6315028
1113,OKLAHOMA,BETHANY,CHILDREN'S CTR,35.5159411,-97.6315028
1114,OKLAHOMA,BETHANY,BETHANY MS,35.5159411,-97.6315028
1115,OKLAHOMA,BETHANY,BETHANY HS,35.5159411,-97.6315028
1116,OKLAHOMA,OKLAHOMA CITY,ADAMS ES,35.4268744,-97.5776481
1117,OKLAHOMA,OKLAHOMA CITY,ARTHUR ES,35.4148039,-97.573228
1118,OKLAHOMA,OKLAHOMA CITY,BODINE ES,35.4115772,-97.4614096
1119,OKLAHOMA,OKLAHOMA CITY,BRITTON ES,35.567787,-97.5346334
1120,OKLAHOMA,OKLAHOMA CITY,BUCHANAN ES,35.4877188,-97.5935484
1121,OKLAHOMA,OKLAHOMA CITY,CESAR CHAVEZ ES,35.4276366,-97.5012515
1122,OKLAHOMA,OKLAHOMA CITY,CLEVELAND ES,35.4934755,-97.5620139
1123,OKLAHOMA,OKLAHOMA CITY,COOLIDGE ES,35.41255,-97.555687
1124,OKLAHOMA,OKLAHOMA CITY,CAPITOL HILL ES,35.4378513,-97.5166443
1125,OKLAHOMA,OKLAHOMA CITY,F.D. MOON ES,35.4835241,-97.4784632
1126,OKLAHOMA,OKLAHOMA CITY,EDGEMERE ES,35.5016993,-97.5203974
1127,OKLAHOMA,OKLAHOMA CITY,EDWARDS ES,35.478917,-97.467187
1128,OKLAHOMA,OKLAHOMA CITY,EMERSON ALTERNATIVE ED. (ES),35.4746329,-97.5219744
1129,OKLAHOMA,OKLAHOMA CITY,EUGENE FIELD ES,35.484203,-97.5326509
1130,OKLAHOMA,OKLAHOMA CITY,FILLMORE ES,35.4129673,-97.5391072
1131,OKLAHOMA,OKLAHOMA CITY,GATEWOOD ES,35.4914643,-97.5411308
1132,OKLAHOMA,OKLAHOMA CITY,GREEN PASTURES ES,35.5153587,-97.3513885
1133,OKLAHOMA,OKLAHOMA CITY,GREYSTONE ES,35.5874398,-97.555972
1134,OKLAHOMA,OKLAHOMA CITY,HAWTHORNE ES,35.4844617,-97.5532546
1135,OKLAHOMA,OKLAHOMA CITY,HAYES ES,35.3961115,-97.5025653
1136,OKLAHOMA,OKLAHOMA CITY,HERONVILLE ES,35.4346623,-97.5383154
1137,OKLAHOMA,OKLAHOMA CITY,HILLCREST ES,35.4009493,-97.5616023
1138,OKLAHOMA,OKLAHOMA CITY,HORACE MANN ES,35.5181005,-97.5307711
1139,OKLAHOMA,OKLAHOMA CITY,JACKSON ES,35.4384741,-97.5577546
1140,OKLAHOMA,OKLAHOMA CITY,JOHNSON ES,35.5638561,-97.5535546
1141,OKLAHOMA,OKLAHOMA CITY,KAISER ES,35.5006673,-97.5906627
1142,OKLAHOMA,OKLAHOMA CITY,M.L. KING JR. ES,35.5208066,-97.4891596
1143,OKLAHOMA,OKLAHOMA CITY,LEE ES,35.4348041,-97.5204515
1144,OKLAHOMA,OKLAHOMA CITY,LINWOOD ES,35.486491,-97.5779359
1145,OKLAHOMA,OKLAHOMA CITY,MARK TWAIN ES,35.4676644,-97.5558912
1146,OKLAHOMA,OKLAHOMA CITY,MONROE ES,35.5190057,-97.5576391
1147,OKLAHOMA,OKLAHOMA CITY,NICHOLS HILLS ES,35.5511302,-97.5365634
1148,OKLAHOMA,OKLAHOMA CITY,NORTH HIGHLAND ES,35.5560904,-97.5149945
1149,OKLAHOMA,OKLAHOMA CITY,OAKRIDGE ES,35.4227869,-97.4511865
1150,OKLAHOMA,OKLAHOMA CITY,THELMA R. PARKS ES,35.5004113,-97.4854976
1151,OKLAHOMA,OKLAHOMA CITY,PARMELEE ES,35.3986238,-97.5183341
1152,OKLAHOMA,OKLAHOMA CITY,PIERCE ES,35.4383966,-97.5928709
1153,OKLAHOMA,OKLAHOMA CITY,PRAIRIE QUEEN ES,35.3996786,-97.5402635
1154,OKLAHOMA,OKLAHOMA CITY,PUTNAM HEIGHTS ES,35.5082732,-97.5398745
1155,OKLAHOMA,OKLAHOMA CITY,QUAIL CREEK ES,35.5890916,-97.5712549
1156,OKLAHOMA,OKLAHOMA CITY,RANCHO VILLAGE ES,35.4258359,-97.5427068
1157,OKLAHOMA,OKLAHOMA CITY,RIDGEVIEW ES,35.5718546,-97.5591792
1158,OKLAHOMA,OKLAHOMA CITY,ROCKWOOD ES,35.4414551,-97.5716343
1159,OKLAHOMA,OKLAHOMA CITY,SEQUOYAH ES,35.5069986,-97.5547683
1160,OKLAHOMA,OKLAHOMA CITY,SHIDLER ES,35.4513228,-97.5039199
1161,OKLAHOMA,OKLAHOMA CITY,SOUTHERN HILLS ES,35.3875358,-97.5413664
1162,OKLAHOMA,OKLAHOMA CITY,SPENCER ES,35.5215631,-97.3725541
1163,OKLAHOMA,OKLAHOMA CITY,STAND WATIE ES,35.4296766,-97.5596747
1164,OKLAHOMA,OKLAHOMA CITY,TELSTAR ES,35.485802,-97.3608066
1165,OKLAHOMA,OKLAHOMA CITY,VAN BUREN ES,35.4243267,-97.5620485
1166,OKLAHOMA,OKLAHOMA CITY,WEST NICHOLS HILLS ES,35.5546878,-97.5582587
1167,OKLAHOMA,OKLAHOMA CITY,WESTWOOD ES,35.4545709,-97.5460923
1168,OKLAHOMA,OKLAHOMA CITY,WHEELER ES,35.4402667,-97.5031515
1169,OKLAHOMA,OKLAHOMA CITY,WILLOW BROOK ES,35.4785908,-97.3860344
1170,OKLAHOMA,OKLAHOMA CITY,WILSON ES,35.491753,-97.5217206
1171,OKLAHOMA,OKLAHOMA CITY,BELLE ISLE MS,35.5309307,-97.5556148
1172,OKLAHOMA,OKLAHOMA CITY,CLASSEN MS OF ADVANCED STUDIES,35.4879041,-97.5333723
1173,OKLAHOMA,OKLAHOMA CITY,EMERSON ALTERNATIVE ED. (MS),35.4746329,-97.5219744
1174,OKLAHOMA,OKLAHOMA CITY,DOUGLASS MS,35.4753109,-97.474821
1175,OKLAHOMA,OKLAHOMA CITY,JEFFERSON MS,35.3985864,-97.538147
1176,OKLAHOMA,OKLAHOMA CITY,NORTHEAST MS,35.5014015,-97.4931532
1177,OKLAHOMA,OKLAHOMA CITY,ROGERS MS,35.511072,-97.378824
1178,OKLAHOMA,OKLAHOMA CITY,ROOSEVELT MS,35.4207844,-97.5726955
1179,OKLAHOMA,OKLAHOMA CITY,TAFT MS,35.4939591,-97.5666377
1180,OKLAHOMA,OKLAHOMA CITY,WEBSTER MS,35.397926,-97.510289
1181,OKLAHOMA,OKLAHOMA CITY,JOHN MARSHALL MS,35.5922733,-97.5877604
1182,OKLAHOMA,OKLAHOMA CITY,OKLAHOMA CENTENNIAL MS,35.5737713,-97.4904647
1183,OKLAHOMA,OKLAHOMA CITY,CAPITOL HILL HS,35.4272729,-97.5224804
1184,OKLAHOMA,OKLAHOMA CITY,CLASSEN HS OF ADVANCED STUDIES,35.4879041,-97.5333723
1185,OKLAHOMA,OKLAHOMA CITY,DOUGLASS HS,35.4753109,-97.474821
1186,OKLAHOMA,OKLAHOMA CITY,EMERSON ALTERNATIVE ED. (HS),35.4746329,-97.5219744
1187,OKLAHOMA,OKLAHOMA CITY,U. S. GRANT HS,35.4148628,-97.5446397
1188,OKLAHOMA,OKLAHOMA CITY,JOHN MARSHALL HS,35.5922733,-97.5877604
1189,OKLAHOMA,OKLAHOMA CITY,OKLAHOMA CENTENNIAL HS,35.5737713,-97.4904647
1190,OKLAHOMA,OKLAHOMA CITY,NORTHEAST HS,35.5014015,-97.4931532
1191,OKLAHOMA,OKLAHOMA CITY,NORTHWEST CLASSEN HS,35.4983965,-97.5644189
1192,OKLAHOMA,OKLAHOMA CITY,SOUTHEAST HS,35.4121054,-97.5095803
1193,OKLAHOMA,OKLAHOMA CITY,STAR SPENCER HS,35.5014337,-97.3810125
1194,OKLAHOMA,OKLAHOMA CITY,DOVE SCIENCE ACADEMY ES,35.5209433,-97.5041737
1195,OKLAHOMA,OKLAHOMA CITY,SANTA FE SOUTH EARLY CHILDHOOD,35.418025,-97.5119994
1196,OKLAHOMA,OKLAHOMA CITY,SANTA FE SOUTH SPERO ES,35.4165279,-97.5121845
1197,OKLAHOMA,OKLAHOMA CITY,DOVE SCIENCE ACADEMY MS,35.4935371,-97.5284305
1198,OKLAHOMA,OKLAHOMA CITY,SANTA FE S PATHWAYS MID COLLEG,35.3866529,-97.5686098
1199,OKLAHOMA,OKLAHOMA CITY,INDEPENDENCE CHARTER MS,35.5379855,-97.5733559
1200,OKLAHOMA,OKLAHOMA CITY,JUSTICE AW SEEWORTH ACADEMY ES,35.5978976,-97.4957378
1201,OKLAHOMA,OKLAHOMA CITY,HUPFELD ACAD./WESTERN VILLAGE,35.578802,-97.5399122
1202,OKLAHOMA,OKLAHOMA CITY,SANTA FE SOUTH HS,35.426695,-97.504596
1203,OKLAHOMA,OKLAHOMA CITY,HARDING CHARTER PREPARATORY HS,35.5036423,-97.5268396
1204,OKLAHOMA,OKLAHOMA CITY,HARDING FINE ARTS ACADEMY,35.5240855,-97.5257395
1205,OKLAHOMA,OKLAHOMA CITY,SANTA FE SOUTH MS,35.418025,-97.5119994
1206,OKLAHOMA,OKLAHOMA CITY,KIPP REACH COLLEGE PREPARATORY,35.47,-97.52
1207,OKLAHOMA,OKLAHOMA CITY,KIPP OKC SOUTH COMMUNITY PREP,35.47,-97.52
1208,OKLAHOMA,OKLAHOMA CITY,JUSTICE AW SEEWORTH ACADEMY HS,35.5978976,-97.4957378
1209,OKLAHOMA,OKLAHOMA CITY,SANTA FE SOUTH PENN ES,35.4122309,-97.5485045
1210,OKLAHOMA,OKLAHOMA CITY,SANTA FE SOUTH HILLS ES,35.426695,-97.504596
1211,OKLAHOMA,OKLAHOMA CITY,DOVE SCIENCE ACADEMY HS,35.4935371,-97.5284305
1212,OKLAHOMA,OKLAHOMA YOUTH ACADEMY,OYA CHARTER TECUMSEH 6TH-8TH,35.24965,-96.944378
1213,OKLAHOMA,OKLAHOMA YOUTH ACADEMY,OYA CHARTER TECUMSEH 9TH-12TH,35.24965,-96.944378
1214,OKLAHOMA,OKLAHOMA YOUTH ACADEMY,OYA CHARTER MANITOU 6TH-8TH,34.5050963,-98.9805665
1215,OKLAHOMA,OKLAHOMA YOUTH ACADEMY,OYA CHARTER MANITOU 9TH-12TH,34.5050963,-98.9805665
1216,OKLAHOMA,EPIC ONE ON ONE CHARTER SCHOOL,EPIC ONE ON ONE CHARTER ES,35.5951918,-97.5942063
1217,OKLAHOMA,EPIC ONE ON ONE CHARTER SCHOOL,EPIC ONE ON ONE CHARTER MS,35.5951918,-97.5942063
1218,OKLAHOMA,EPIC ONE ON ONE CHARTER SCHOOL,EPIC ONE ON ONE CHARTER HS,35.5951918,-97.5942063
1219,OKLAHOMA,OKLAHOMA VIRTUAL CHARTER ACAD,OKLA. VIRTUAL CHARTER ACAD ES,35.4535046,-97.3698152
1220,OKLAHOMA,OKLAHOMA VIRTUAL CHARTER ACAD,OKLA. VIRTUAL CHARTER ACAD MS,35.4535046,-97.3698152
1221,OKLAHOMA,OKLAHOMA VIRTUAL CHARTER ACAD,OKLA. VIRTUAL CHARTER ACAD HS,35.4535046,-97.3698152
1222,OKLAHOMA,OKLAHOMA CONNECTIONS ACADEMY,OKLAHOMA CONNECTIONS ACAD ES,36.7288151,-95.9501774
1223,OKLAHOMA,OKLAHOMA CONNECTIONS ACADEMY,OKLAHOMA CONNECTIONS ACAD MS,36.7288151,-95.9501774
1224,OKLAHOMA,OKLAHOMA CONNECTIONS ACADEMY,OKLAHOMA CONNECTIONS ACAD HS,36.7288151,-95.9501774
1225,OKLAHOMA,INSIGHT SCHOOL OF OKLAHOMA,INSIGHT SCHOOL OF OKLAHOMA MS,35.4536049,-97.3698552
1226,OKLAHOMA,INSIGHT SCHOOL OF OKLAHOMA,INSIGHT SCHOOL OF OKLAHOMA HS,35.4536049,-97.3698552
1227,OKMULGEE,TWIN HILLS,TWIN HILLS PUBLIC SCHOOL,35.7516783,-95.8379509
1228,OKMULGEE,OKMULGEE,OKMULGEE PRIMARY ES,35.624892,-95.9721768
1229,OKMULGEE,OKMULGEE,DUNBAR INTERMEDIATE ES,35.624892,-95.9721768
1230,OKMULGEE,OKMULGEE,OKMULGEE HS,35.624892,-95.9721768
1231,OKMULGEE,HENRYETTA,HENRYETTA ES,35.4456602,-96.0060897
1232,OKMULGEE,HENRYETTA,HENRYETTA MS,35.4456602,-96.0060897
1233,OKMULGEE,HENRYETTA,HENRYETTA HS,35.4456602,-96.0060897
1234,OKMULGEE,MORRIS,MORRIS ES,35.6067555,-95.8526879
1235,OKMULGEE,MORRIS,MORRIS MS,35.6067555,-95.8526879
1236,OKMULGEE,MORRIS,MORRIS HS,35.6067555,-95.8526879
1237,OKMULGEE,BEGGS,BEGGS ES,35.748638,-96.0827998
1238,OKMULGEE,BEGGS,BEGGS MS,35.748638,-96.0827998
1239,OKMULGEE,BEGGS,BEGGS HS,35.748638,-96.0827998
1240,OKMULGEE,PRESTON,PRESTON ES,35.7112026,-95.9912784
1241,OKMULGEE,PRESTON,PRESTON HS,35.7112026,-95.9912784
1242,OKMULGEE,SCHULTER,SCHULTER ES,35.5177975,-95.9560362
1243,OKMULGEE,SCHULTER,SCHULTER HS,35.5177975,-95.9560362
1244,OKMULGEE,WILSON,WILSON ES,35.5077095,-96.0351257
1245,OKMULGEE,WILSON,WILSON HS,35.5077095,-96.0351257
1246,OKMULGEE,DEWAR,DEWAR ES,35.4586067,-95.9405628
1247,OKMULGEE,DEWAR,DEWAR MS,35.4586067,-95.9405628
1248,OKMULGEE,DEWAR,DEWAR HS,35.4586067,-95.9405628
1249,OSAGE,OSAGE HILLS,OSAGE HILLS PUBLIC SCHOOL,36.7335293,-96.0073225
1250,OSAGE,BOWRING,BOWRING PUBLIC SCHOOL,36.8780134,-96.1173827
1251,OSAGE,AVANT,AVANT PUBLIC SCHOOL,36.4923574,-96.057152
1252,OSAGE,ANDERSON,ANDERSON PUBLIC SCHOOL,36.1734612,-96.1849354
1253,OSAGE,MCCORD,MCCORD PUBLIC SCHOOL,36.6664867,-97.0309534
1254,OSAGE,PAWHUSKA,INDIAN CAMP ES,36.6728222,-96.3227402
1255,OSAGE,PAWHUSKA,PAWHUSKA ES,36.6743396,-96.3304169
1256,OSAGE,PAWHUSKA,PAWHUSKA JHS,36.6728063,-96.3315596
1257,OSAGE,PAWHUSKA,PAWHUSKA HS,36.6728075,-96.3314787
1258,OSAGE,SHIDLER,WARD ES,36.7796568,-96.6614987
1259,OSAGE,SHIDLER,SHIDLER MS,36.7796568,-96.6614987
1260,OSAGE,SHIDLER,SHIDLER HS,36.7796568,-96.6614987
1261,OSAGE,BARNSDALL,BARNSDALL ES,36.5620228,-96.1629152
1262,OSAGE,BARNSDALL,BARNSDALL JHS,36.5620228,-96.1629152
1263,OSAGE,BARNSDALL,BARNSDALL HS,36.5620228,-96.1629152
1264,OSAGE,WYNONA,WYNONA ES,36.5468501,-96.3287238
1265,OSAGE,WYNONA,WYNONA HS,36.5468501,-96.3287238
1266,OSAGE,HOMINY,HORACE MANN ES,36.4135588,-96.3908505
1267,OSAGE,HOMINY,HOMINY EARLY CHILDHOOD CENTER,36.4135588,-96.3908505
1268,OSAGE,HOMINY,HOMINY MS,36.4135588,-96.3908505
1269,OSAGE,HOMINY,HOMINY HS,36.4135588,-96.3908505
1270,OSAGE,PRUE,PRUE ES,36.2528369,-96.2703207
1271,OSAGE,PRUE,PRUE HS,36.2528369,-96.2703207
1272,OSAGE,WOODLAND,WOODLAND ES,36.5707662,-96.7082409
1273,OSAGE,WOODLAND,WOODLAND UPPER ES,36.5707662,-96.7082409
1274,OSAGE,WOODLAND,WOODLAND HS,36.5707662,-96.7082409
1275,OTTAWA,TURKEY FORD,TURKEY FORD PUBLIC SCHOOL,36.6692306,-94.6796248
1276,OTTAWA,WYANDOTTE,WYANDOTTE ES,36.7946784,-94.7249204
1277,OTTAWA,WYANDOTTE,WYANDOTTE MS,36.7946784,-94.7249204
1278,OTTAWA,WYANDOTTE,WYANDOTTE HS,36.7946784,-94.7249204
1279,OTTAWA,QUAPAW,QUAPAW ES,36.958014,-94.793619
1280,OTTAWA,QUAPAW,QUAPAW MS,36.958014,-94.793619
1281,OTTAWA,QUAPAW,QUAPAW HS,36.958014,-94.793619
1282,OTTAWA,COMMERCE,ALEXANDER ES,36.9399464,-94.8707942
1283,OTTAWA,COMMERCE,COMMERCE MS,36.9330235,-94.8722824
1284,OTTAWA,COMMERCE,COMMERCE HS,36.9274761,-94.8731508
1285,OTTAWA,MIAMI,ROCKDALE ES,36.8871478,-94.8545397
1286,OTTAWA,MIAMI,ROOSEVELT ES,36.8772458,-94.8855246
1287,OTTAWA,MIAMI,WASHINGTON ES,36.897803,-94.8751194
1288,OTTAWA,MIAMI,WILSON ES,36.8796293,-94.8847001
1289,OTTAWA,MIAMI,NICHOLS UPPER ES,36.891876,-94.884107
1290,OTTAWA,MIAMI,WILL ROGERS MS,36.8897306,-94.8846443
1291,OTTAWA,MIAMI,MIAMI HS,36.8749722,-94.8539271
1292,OTTAWA,AFTON,AFTON ES,36.6934229,-94.964852
1293,OTTAWA,AFTON,AFTON HS,36.6934229,-94.964852
1294,OTTAWA,FAIRLAND,FAIRLAND ES,36.7516373,-94.8515746
1295,OTTAWA,FAIRLAND,FAIRLAND MS,36.7516373,-94.8515746
1296,OTTAWA,FAIRLAND,FAIRLAND HS,36.7516373,-94.8515746
1297,PAWNEE,JENNINGS,JENNINGS PUBLIC SCHOOL,36.1818553,-96.5684915
1298,PAWNEE,PAWNEE,PAWNEE ES,36.3360793,-96.805209
1299,PAWNEE,PAWNEE,PAWNEE MS,36.3332572,-96.8046287
1300,PAWNEE,PAWNEE,PAWNEE HS,36.332664,-96.8052509
1301,PAWNEE,CLEVELAND,CLEVELAND PRIMARY ES,36.3170058,-96.4745005
1302,PAWNEE,CLEVELAND,CLEVELAND INTERMEDIATE ES,36.3170058,-96.4745005
1303,PAWNEE,CLEVELAND,CLEVELAND MS,36.3170058,-96.4745005
1304,PAWNEE,CLEVELAND,CLEVELAND HS,36.3170058,-96.4745005
1305,PAYNE,OAK GROVE,OAK GROVE PUBLIC SCHOOL,35.970227,-96.641508
1306,PAYNE,RIPLEY,RIPLEY ES,36.0186926,-96.9051003
1307,PAYNE,RIPLEY,RIPLEY HS,36.0186926,-96.9051003
1308,PAYNE,STILLWATER,HIGHLAND PARK ES,36.1192425,-97.0269104
1309,PAYNE,STILLWATER,SANGRE RIDGE ES,36.0947465,-97.1053879
1310,PAYNE,STILLWATER,SKYLINE ES,36.1384744,-97.0413354
1311,PAYNE,STILLWATER,WESTWOOD ES,35.97535,-96.783396
1312,PAYNE,STILLWATER,WILL ROGERS ES,36.1345192,-97.068975
1313,PAYNE,STILLWATER,RICHMOND ES,36.1731598,-97.0607175
1314,PAYNE,STILLWATER,STILLWATER MS,36.0968458,-97.105998
1315,PAYNE,STILLWATER,STILLWATER JHS,36.1404332,-97.0397061
1316,PAYNE,STILLWATER,STILLWATER HS,36.1358038,-97.0634151
1317,PAYNE,PERKINS-TRYON,PERKINS-TRYON ES,35.9739448,-97.0336417
1318,PAYNE,PERKINS-TRYON,PERKINS-TRYON INTERMEDIATE ES,35.9739448,-97.0336417
1319,PAYNE,PERKINS-TRYON,PERKINS-TRYON MS,35.9739448,-97.0336417
1320,PAYNE,PERKINS-TRYON,PERKINS-TRYON HS,35.9739448,-97.0336417
1321,PAYNE,CUSHING,CUSHING PRE-KINDERGARTEN SCHL,35.961236,-96.785847
1322,PAYNE,CUSHING,CUSHING LOWER ES,35.965925,-96.733997
1323,PAYNE,CUSHING,CUSHING UPPER ES,35.9825569,-96.7687222
1324,PAYNE,CUSHING,CUSHING MS,35.9745274,-96.7319631
1325,PAYNE,CUSHING,CUSHING HS,35.9831255,-96.7430202
1326,PAYNE,GLENCOE,GLENCOE ES,36.230963,-96.924209
1327,PAYNE,GLENCOE,GLENCOE HS,36.230963,-96.924209
1328,PAYNE,YALE,YALE ES,36.1217929,-96.695085
1329,PAYNE,YALE,YALE MS,36.1164121,-96.6958103
1330,PAYNE,YALE,YALE HS,36.1164121,-96.6958103
1331,PITTSBURG,KREBS,KREBS PUBLIC SCHOOL,34.926508,-95.7155614
1332,PITTSBURG,FRINK-CHAMBERS,FRINK-CHAMBERS PUBLIC SCHOOL,34.8772012,-95.7885825
1333,PITTSBURG,TANNEHILL,TANNEHILL PUBLIC SCHOOL,34.9995143,-95.8581807
1334,PITTSBURG,HAYWOOD,HAYWOOD PUBLIC SCHOOL,34.8852796,-95.9471616
1335,PITTSBURG,CARLTON LANDING ACADEMY,CARLTON LANDING ACADEMY ES,35.2032126,-95.5449039
1336,PITTSBURG,CARLTON LANDING ACADEMY,CARLTON LANDING ACADEMY HS,35.2032126,-95.5449039
1337,PITTSBURG,HARTSHORNE,HARTSHORNE ES,34.850561,-95.5572732
1338,PITTSBURG,HARTSHORNE,HARTSHORNE MS,34.8421588,-95.5680651
1339,PITTSBURG,HARTSHORNE,HARTSHORNE HS,34.8421588,-95.5680651
1340,PITTSBURG,CANADIAN,CANADIAN ES,35.1763493,-95.6552902
1341,PITTSBURG,CANADIAN,CANADIAN HS,35.1763493,-95.6552902
1342,PITTSBURG,CANADIAN,CARLTON LANDING ACADEMY ES,35.9513564,-95.6482603
1343,PITTSBURG,CANADIAN,CARLTON LANDING ACADEMY HS,35.9513564,-95.6482603
1344,PITTSBURG,HAILEYVILLE,HAILEYVILLE ES,34.8555832,-95.5799833
1345,PITTSBURG,HAILEYVILLE,HAILEYVILLE HS,34.8555832,-95.5799833
1346,PITTSBURG,KIOWA,KIOWA ES,34.7213707,-95.9055792
1347,PITTSBURG,KIOWA,KIOWA HS,34.7213707,-95.9055792
1348,PITTSBURG,QUINTON,QUINTON ES,35.1231369,-95.3673477
1349,PITTSBURG,QUINTON,QUINTON HS,35.1231369,-95.3673477
1350,PITTSBURG,INDIANOLA,INDIANOLA ES,35.1676102,-95.7743359
1351,PITTSBURG,INDIANOLA,INDIANOLA HS,35.1676102,-95.7743359
1352,PITTSBURG,CROWDER,CROWDER ES,35.1247709,-95.6746759
1353,PITTSBURG,CROWDER,CROWDER HS,35.1247709,-95.6746759
1354,PITTSBURG,SAVANNA,SAVANNA ES,34.828904,-95.8440633
1355,PITTSBURG,SAVANNA,SAVANNA HS,34.828904,-95.8440633
1356,PITTSBURG,PITTSBURG,PITTSBURG ES,34.7137738,-95.8491799
1357,PITTSBURG,PITTSBURG,PITTSBURG HS,34.7137738,-95.8491799
1358,PITTSBURG,MCALESTER,EDMOND DOYLE ES,34.9323024,-95.7622647
1359,PITTSBURG,MCALESTER,EMERSON ES,34.9323024,-95.7622647
1360,PITTSBURG,MCALESTER,WILLIAM GAY EC CTR,34.9323024,-95.7622647
1361,PITTSBURG,MCALESTER,JEFFERSON EC CTR,34.9323024,-95.7622647
1362,PITTSBURG,MCALESTER,WILL ROGERS ES,34.9323024,-95.7622647
1363,PITTSBURG,MCALESTER,PARKER INTERMEDIATE CTR,34.9323024,-95.7622647
1364,PITTSBURG,MCALESTER,PUTERBAUGH MS,34.9323024,-95.7622647
1365,PITTSBURG,MCALESTER,MCALESTER HS,34.9323024,-95.7622647
1366,PONTOTOC,ALLEN,ALLEN ES,34.878749,-96.416469
1367,PONTOTOC,ALLEN,ALLEN HS,34.878749,-96.416469
1368,PONTOTOC,VANOSS,VANOSS ES,34.75991,-96.8681954
1369,PONTOTOC,VANOSS,VANOSS HS,34.75991,-96.8681954
1370,PONTOTOC,BYNG,BYNG ES,34.8622457,-96.6664328
1371,PONTOTOC,BYNG,HOMER ES,34.7873572,-96.6328337
1372,PONTOTOC,BYNG,FRANCIS ES,34.8622457,-96.6664328
1373,PONTOTOC,BYNG,BYNG JHS,34.8622457,-96.6664328
1374,PONTOTOC,BYNG,BYNG HS,34.8622457,-96.6664328
1375,PONTOTOC,ADA,ADA EC CTR,34.7527293,-96.6869818
1376,PONTOTOC,ADA,HAYES ES,34.7702212,-96.6699322
1377,PONTOTOC,ADA,WASHINGTON ES,34.769216,-96.6866664
1378,PONTOTOC,ADA,WILLARD ES,34.7762897,-96.6675708
1379,PONTOTOC,ADA,ADA JHS,34.7664948,-96.6815417
1380,PONTOTOC,ADA,ADA HS,34.7603918,-96.6611754
1381,PONTOTOC,LATTA,LATTA ES,34.7528996,-96.8022996
1382,PONTOTOC,LATTA,LATTA MS,34.7528996,-96.8022996
1383,PONTOTOC,LATTA,LATTA HS,34.7528996,-96.8022996
1384,PONTOTOC,STONEWALL,STONEWALL ES,34.6475821,-96.5285508
1385,PONTOTOC,STONEWALL,MCLISH MS,34.6475821,-96.5285508
1386,PONTOTOC,STONEWALL,STONEWALL HS,34.6475821,-96.5285508
1387,PONTOTOC,ROFF,ROFF ES,34.6275449,-96.8423443
1388,PONTOTOC,ROFF,ROFF HS,34.6275449,-96.8423443
1389,POTTAWATOMIE,NORTH ROCK CREEK,NORTH ROCK CREEK PUBLIC SCHOOL,35.406182,-96.9033154
1390,POTTAWATOMIE,GROVE,GROVE PUBLIC SCHOOL,35.362124,-96.894801
1391,POTTAWATOMIE,PLEASANT GROVE,PLEASANT GROVE PUBLIC SCHOOL,35.324597,-96.895809
1392,POTTAWATOMIE,SOUTH ROCK CREEK,SOUTH ROCK CREEK PUBLIC SCHOOL,35.3067247,-96.8605784
1393,POTTAWATOMIE,MCLOUD,MCLOUD ES,35.4261465,-97.0962802
1394,POTTAWATOMIE,MCLOUD,MCLOUD JHS,35.4261465,-97.0962802
1395,POTTAWATOMIE,MCLOUD,MCLOUD HS,35.4261465,-97.0962802
1396,POTTAWATOMIE,DALE,DALE ES,35.3874696,-97.0463858
1397,POTTAWATOMIE,DALE,DALE MS,35.3874696,-97.0463858
1398,POTTAWATOMIE,DALE,DALE HS,35.3874696,-97.0463858
1399,POTTAWATOMIE,BETHEL,BETHEL ES,35.3189415,-97.0159719
1400,POTTAWATOMIE,BETHEL,BETHEL MS,35.3189415,-97.0159719
1401,POTTAWATOMIE,BETHEL,BETHEL HS,35.3189415,-97.0159719
1402,POTTAWATOMIE,MACOMB,MACOMB ES,35.1446113,-97.0096567
1403,POTTAWATOMIE,MACOMB,MACOMB HS,35.1446113,-97.0096567
1404,POTTAWATOMIE,EARLSBORO,EARLSBORO ES,35.2682177,-96.8054268
1405,POTTAWATOMIE,EARLSBORO,EARLSBORO ES,35.2682177,-96.8054268
1406,POTTAWATOMIE,EARLSBORO,EARLSBORO HS,35.2682177,-96.8054268
1407,POTTAWATOMIE,EARLSBORO,EARLSBORO HS,35.2682177,-96.8054268
1408,POTTAWATOMIE,TECUMSEH,BARNARD ES,35.2547531,-96.9338707
1409,POTTAWATOMIE,TECUMSEH,KROUCH ES,35.2587382,-96.944736
1410,POTTAWATOMIE,TECUMSEH,CROSS TIMBERS ES,35.2547644,-96.9500435
1411,POTTAWATOMIE,TECUMSEH,TECUMSEH MS,35.2591226,-96.9395324
1412,POTTAWATOMIE,TECUMSEH,TECUMSEH HS,35.2662601,-96.946591
1413,POTTAWATOMIE,SHAWNEE,SHAWNEE EC CTR,35.3538597,-96.9359256
1414,POTTAWATOMIE,SHAWNEE,HORACE MANN ES,35.3316005,-96.9059886
1415,POTTAWATOMIE,SHAWNEE,JEFFERSON ES,35.3389703,-96.9290363
1416,POTTAWATOMIE,SHAWNEE,SEQUOYAH ES,35.3472342,-96.9047848
1417,POTTAWATOMIE,SHAWNEE,WILL ROGERS ES,35.3610568,-96.9204942
1418,POTTAWATOMIE,SHAWNEE,SHAWNEE MS,35.3733519,-96.921752
1419,POTTAWATOMIE,SHAWNEE,SHAWNEE HS,35.3413791,-96.9378548
1420,POTTAWATOMIE,ASHER,ASHER ES,34.9893728,-96.926727
1421,POTTAWATOMIE,ASHER,ASHER HS,34.9893728,-96.926727
1422,POTTAWATOMIE,WANETTE,WANETTE ES,34.9624445,-97.0325267
1423,POTTAWATOMIE,WANETTE,WANETTE HS,34.9624445,-97.0325267
1424,POTTAWATOMIE,MAUD,MAUD ES,35.1310728,-96.7771374
1425,POTTAWATOMIE,MAUD,MAUD HS,35.1310728,-96.7771374
1426,PUSHMATAHA,ALBION,ALBION PUBLIC SCHOOL,34.6607744,-95.1023567
1427,PUSHMATAHA,TUSKAHOMA,TUSKAHOMA PUBLIC SCHOOL,34.614007,-95.2751385
1428,PUSHMATAHA,NASHOBA,NASHOBA PUBLIC SCHOOL,34.482328,-95.211458
1429,PUSHMATAHA,RATTAN,RATTAN ES,34.2007277,-95.4137316
1430,PUSHMATAHA,RATTAN,RATTAN JHS,34.2007277,-95.4137316
1431,PUSHMATAHA,RATTAN,RATTAN HS,34.2007277,-95.4137316
1432,PUSHMATAHA,CLAYTON,CRAIN ES,34.5891094,-95.3619213
1433,PUSHMATAHA,CLAYTON,CLAYTON HS,34.590712,-95.3659564
1434,PUSHMATAHA,ANTLERS,BRANTLY ES,34.2337004,-95.6198363
1435,PUSHMATAHA,ANTLERS,OBUCH MS,34.2337004,-95.6198363
1436,PUSHMATAHA,ANTLERS,ANTLERS HS,34.2337004,-95.6198363
1437,PUSHMATAHA,MOYERS,MOYERS ES,34.3259498,-95.6524366
1438,PUSHMATAHA,MOYERS,MOYERS HS,34.3259498,-95.6524366
1439,ROGER MILLS,LEEDEY,LEEDEY ES,35.8679689,-99.3423088
1440,ROGER MILLS,LEEDEY,LEEDEY HS,35.8679689,-99.3423088
1441,ROGER MILLS,REYDON,REYDON ES,35.6533254,-99.9201472
1442,ROGER MILLS,REYDON,REYDON HS,35.6533254,-99.9201472
1443,ROGER MILLS,CHEYENNE,CHEYENNE ES,35.6139371,-99.6714939
1444,ROGER MILLS,CHEYENNE,CHEYENNE HS,35.6139371,-99.6714939
1445,ROGER MILLS,SWEETWATER,SWEETWATER ES,35.4064538,-99.9120653
1446,ROGER MILLS,SWEETWATER,SWEETWATER HS,35.4064538,-99.9120653
1447,ROGER MILLS,HAMMON,HAMMON ES,35.6330731,-99.3816516
1448,ROGER MILLS,HAMMON,HAMMON HS,35.6330731,-99.3816516
1449,ROGERS,JUSTUS-TIAWAH,JUSTUS-TIAWAH PUBLIC SCHOOL,36.3079753,-95.5612056
1450,ROGERS,CLAREMORE,CLAREMONT ES,36.314115,-95.604526
1451,ROGERS,CLAREMORE,ROOSA ES,36.3280681,-95.5983538
1452,ROGERS,CLAREMORE,WESTSIDE ES,36.3073801,-95.6453204
1453,ROGERS,CLAREMORE,CATALAYAH ES,36.278933,-95.647463
1454,ROGERS,CLAREMORE,WILL ROGERS JHS,36.3281316,-95.6036948
1455,ROGERS,CLAREMORE,CLAREMORE HS,36.3290809,-95.6060605
1456,ROGERS,CATOOSA,J. W. SAM ES,36.1691591,-95.755302
1457,ROGERS,CATOOSA,CHEROKEE ES,36.1691591,-95.755302
1458,ROGERS,CATOOSA,HELEN PAUL LEARNING CTR,36.1691591,-95.755302
1459,ROGERS,CATOOSA,WELLS MS,36.1691591,-95.755302
1460,ROGERS,CATOOSA,CATOOSA HS,36.1691591,-95.755302
1461,ROGERS,CHELSEA,ART GOAD ES,36.5411018,-95.4383361
1462,ROGERS,CHELSEA,CHELSEA MS,36.5411018,-95.4383361
1463,ROGERS,CHELSEA,CHELSEA HS,36.5411018,-95.4383361
1464,ROGERS,OOLOGAH-TALALA,OOLOGAH-TALALA LOWER ES,36.4563332,-95.708491
1465,ROGERS,OOLOGAH-TALALA,OOLOGAH-TALALA UPPER ES,36.4563332,-95.708491
1466,ROGERS,OOLOGAH-TALALA,OOLOGAH-TALALA MS,36.4563332,-95.708491
1467,ROGERS,OOLOGAH-TALALA,OOLOGAH-TALALA HS,36.4563332,-95.708491
1468,ROGERS,INOLA,INOLA ES,36.1489551,-95.5087851
1469,ROGERS,INOLA,INOLA MS,36.1489551,-95.5087851
1470,ROGERS,INOLA,INOLA HS,36.1489551,-95.5087851
1471,ROGERS,SEQUOYAH,SEQUOYAH ES,36.371353,-95.560652
1472,ROGERS,SEQUOYAH,SEQUOYAH MS,36.3752141,-95.5611257
1473,ROGERS,SEQUOYAH,SEQUOYAH HS,36.3743127,-95.5587646
1474,ROGERS,FOYIL,FOYIL ES,36.433211,-95.521088
1475,ROGERS,FOYIL,FOYIL JHS,36.433211,-95.521088
1476,ROGERS,FOYIL,FOYIL HS,36.433211,-95.521088
1477,ROGERS,VERDIGRIS,VERDIGRIS ES,36.2349259,-95.6865945
1478,ROGERS,VERDIGRIS,VERDIGRIS UPPER ES,36.2341898,-95.6852585
1479,ROGERS,VERDIGRIS,VERDIGRIS JHS,36.2263804,-95.6895603
1480,ROGERS,VERDIGRIS,VERDIGRIS HS,36.2263804,-95.6895603
1481,SEMINOLE,JUSTICE,JUSTICE PUBLIC SCHOOL,35.1158728,-96.5097488
1482,SEMINOLE,SEMINOLE,WILSON ES,35.2257235,-96.6701999
1483,SEMINOLE,SEMINOLE,NORTHWOOD ES,35.2257235,-96.6701999
1484,SEMINOLE,SEMINOLE,SEMINOLE MS,35.2257235,-96.6701999
1485,SEMINOLE,SEMINOLE,SEMINOLE HS,35.2257235,-96.6701999
1486,SEMINOLE,WEWOKA,WEWOKA ES,35.1579119,-96.4922754
1487,SEMINOLE,WEWOKA,WEWOKA MS,35.1579119,-96.4922754
1488,SEMINOLE,WEWOKA,WEWOKA HS,35.1579119,-96.4922754
1489,SEMINOLE,BOWLEGS,BOWLEGS ES,35.144675,-96.669873
1490,SEMINOLE,BOWLEGS,BOWLEGS HS,35.144675,-96.669873
1491,SEMINOLE,KONAWA,KONAWA ES,34.9568921,-96.761946
1492,SEMINOLE,KONAWA,KONAWA MS,34.9568921,-96.761946
1493,SEMINOLE,KONAWA,KONAWA HS,34.9568921,-96.761946
1494,SEMINOLE,NEW LIMA,NEW LIMA ES,35.1716506,-96.5922049
1495,SEMINOLE,NEW LIMA,NEW LIMA HS,35.1716506,-96.5922049
1496,SEMINOLE,VARNUM,VARNUM ES,35.2863804,-96.6899729
1497,SEMINOLE,VARNUM,VARNUM HS,35.2863804,-96.6899729
1498,SEMINOLE,SASAKWA,SASAKWA ES,34.9482169,-96.525496
1499,SEMINOLE,SASAKWA,SASAKWA HS,34.9482169,-96.525496
1500,SEMINOLE,STROTHER,STROTHER ES,35.3644,-96.689413
1501,SEMINOLE,STROTHER,STROTHER HS,35.3644,-96.689413
1502,SEMINOLE,BUTNER,BUTNER ES,35.3414295,-96.4587352
1503,SEMINOLE,BUTNER,BUTNER HS,35.3414295,-96.4587352
1504,SEQUOYAH,LIBERTY,LIBERTY PUBLIC SCHOOL,35.4112795,-94.5125684
1505,SEQUOYAH,MARBLE CITY,MARBLE CITY PUBLIC SCHOOL,35.5807516,-94.8210065
1506,SEQUOYAH,BRUSHY,BRUSHY PUBLIC SCHOOL,35.5018727,-94.7434045
1507,SEQUOYAH,BELFONTE,BELFONTE PUBLIC SCHOOL,35.5667935,-94.5448482
1508,SEQUOYAH,BELFONTE,BELFONTE BELL ES (ADAIR CNTY),35.81453,-94.6285553
1509,SEQUOYAH,MOFFETT,MOFFETT PUBLIC SCHOOL,35.3902293,-94.445348
1510,SEQUOYAH,SALLISAW,LIBERTY ES,35.4583135,-94.7777989
1511,SEQUOYAH,SALLISAW,EASTSIDE ES,35.4572503,-94.7761611
1512,SEQUOYAH,SALLISAW,SALLISAW MS,35.4489307,-94.8141134
1513,SEQUOYAH,SALLISAW,SALLISAW HS,35.4510095,-94.8182442
1514,SEQUOYAH,VIAN,VIAN ES,35.4998034,-94.9685813
1515,SEQUOYAH,VIAN,VIAN MS,35.4998034,-94.9685813
1516,SEQUOYAH,VIAN,VIAN HS,35.4998034,-94.9685813
1517,SEQUOYAH,MULDROW,MULDROW ES,35.4062034,-94.5988306
1518,SEQUOYAH,MULDROW,MULDROW MS,35.4062034,-94.5988306
1519,SEQUOYAH,MULDROW,MULDROW HS,35.4062034,-94.5988306
1520,SEQUOYAH,GANS,GANS ES,35.388309,-94.692804
1521,SEQUOYAH,GANS,GANS HS,35.388309,-94.692804
1522,SEQUOYAH,ROLAND,ROLAND ES,35.4171643,-94.5169254
1523,SEQUOYAH,ROLAND,ROLAND JHS,35.4171643,-94.5169254
1524,SEQUOYAH,ROLAND,ROLAND HS,35.4171643,-94.5169254
1525,SEQUOYAH,GORE,GORE ES,35.5407722,-95.1222145
1526,SEQUOYAH,GORE,GORE UPPER ES,35.5407722,-95.1222145
1527,SEQUOYAH,GORE,GORE HS,35.5407722,-95.1222145
1528,SEQUOYAH,CENTRAL,CENTRAL ES,35.4485339,-94.7075001
1529,SEQUOYAH,CENTRAL,CENTRAL HS,35.4485339,-94.7075001
1530,STEPHENS,GRANDVIEW,GRANDVIEW PUBLIC SCHOOL,34.3689747,-97.963924
1531,STEPHENS,DUNCAN,EMERSON ES,34.5003478,-97.9573672
1532,STEPHENS,DUNCAN,HORACE MANN ES,34.5003478,-97.9573672
1533,STEPHENS,DUNCAN,WILL ROGERS PRE-K CTR,34.5003478,-97.9573672
1534,STEPHENS,DUNCAN,MARK TWAIN ES,34.5003478,-97.9573672
1535,STEPHENS,DUNCAN,WOODROW WILSON ES,34.5003478,-97.9573672
1536,STEPHENS,DUNCAN,PLATO ES,34.5003478,-97.9573672
1537,STEPHENS,DUNCAN,DUNCAN MS,34.5003478,-97.9573672
1538,STEPHENS,DUNCAN,DUNCAN HS,34.5003478,-97.9573672
1539,STEPHENS,COMANCHE,COMANCHE ES,34.362877,-97.9756111
1540,STEPHENS,COMANCHE,COMANCHE MS,34.362877,-97.9756111
1541,STEPHENS,COMANCHE,COMANCHE HS,34.362877,-97.9756111
1542,STEPHENS,MARLOW,MARLOW ES,34.6473735,-97.9590736
1543,STEPHENS,MARLOW,MARLOW MS,34.6473735,-97.9590736
1544,STEPHENS,MARLOW,MARLOW HS,34.6473735,-97.9590736
1545,STEPHENS,VELMA-ALMA,VELMA-ALMA ES,34.4576163,-97.6734429
1546,STEPHENS,VELMA-ALMA,VELMA-ALMA MS,34.4576163,-97.6734429
1547,STEPHENS,VELMA-ALMA,VELMA-ALMA HS,34.4576163,-97.6734429
1548,STEPHENS,EMPIRE,EMPIRE ES,34.4643017,-97.8076254
1549,STEPHENS,EMPIRE,EMPIRE MS,34.4643017,-97.8076254
1550,STEPHENS,EMPIRE,EMPIRE HS,34.4643017,-97.8076254
1551,STEPHENS,CENTRAL HIGH,CENTRAL HIGH ES,34.5950105,-98.0893831
1552,STEPHENS,CENTRAL HIGH,CENTRAL HIGH JHS,34.5950105,-98.0893831
1553,STEPHENS,CENTRAL HIGH,CENTRAL HIGH HS,34.5950105,-98.0893831
1554,STEPHENS,BRAY-DOYLE,BRAY-DOYLE ES,34.6339848,-97.8172132
1555,STEPHENS,BRAY-DOYLE,BRAY-DOYLE HS,34.6339848,-97.8172132
1556,TEXAS,OPTIMA,OPTIMA PUBLIC SCHOOL,36.8857621,-101.2977322
1557,TEXAS,STRAIGHT,STRAIGHT PUBLIC SCHOOL,36.8780176,-101.4492623
1558,TEXAS,YARBROUGH,YARBROUGH ES,36.5953038,-101.6365504
1559,TEXAS,YARBROUGH,YARBROUGH HS,36.5953038,-101.6365504
1560,TEXAS,GUYMON,ACADEMY ES,36.6850584,-101.4854549
1561,TEXAS,GUYMON,ACADEMY ES,36.6850584,-101.4854549
1562,TEXAS,GUYMON,NORTHEAST ES,36.690691,-101.4800028
1563,TEXAS,GUYMON,HOMER LONG ES,36.6930718,-101.4880568
1564,TEXAS,GUYMON,HOMER LONG ES,36.6930718,-101.4880568
1565,TEXAS,GUYMON,SALYER ES,36.6828041,-101.4815493
1566,TEXAS,GUYMON,CARRIER ES,36.6785746,-101.4693687
1567,TEXAS,GUYMON,NORTH PARK ES,36.6921136,-101.4785512
1568,TEXAS,GUYMON,PRAIRIE ES,36.6739043,-101.4613986
1569,TEXAS,GUYMON,CENTRAL JHS,36.6860238,-101.4877978
1570,TEXAS,GUYMON,GUYMON HS,36.6978446,-101.4867488
1571,TEXAS,HARDESTY,HARDESTY ES,36.6158185,-101.191676
1572,TEXAS,HARDESTY,HARDESTY HS,36.6158185,-101.191676
1573,TEXAS,HOOKER,HOOKER ES,36.8600261,-101.2134954
1574,TEXAS,HOOKER,HOOKER HS,36.8600261,-101.2134954
1575,TEXAS,TYRONE,TYRONE ES,36.9583218,-101.068022
1576,TEXAS,TYRONE,TYRONE HS,36.9583218,-101.068022
1577,TEXAS,GOODWELL,GOODWELL ES,36.5937954,-101.6320056
1578,TEXAS,GOODWELL,GOODWELL HS,36.5937954,-101.6320056
1579,TEXAS,TEXHOMA,TEXHOMA ES,36.5042099,-101.7835659
1580,TEXAS,TEXHOMA,TEXHOMA HS,36.5042099,-101.7835659
1581,TILLMAN,DAVIDSON,DAVIDSON ES,34.24092,-99.0756322
1582,TILLMAN,TIPTON,TIPTON ES,34.4950914,-99.1406509
1583,TILLMAN,TIPTON,TIPTON HS,34.4950914,-99.1406509
1584,TILLMAN,FREDERICK,FREDERICK ES,34.3971911,-99.011143
1585,TILLMAN,FREDERICK,FREDERICK MS,34.3971911,-99.011143
1586,TILLMAN,FREDERICK,FREDERICK HS,34.3971911,-99.011143
1587,TILLMAN,GRANDFIELD,GRANDFIELD ES,34.2305629,-98.6823723
1588,TILLMAN,GRANDFIELD,GRANDFIELD HS,34.2305629,-98.6823723
1589,TULSA,KEYSTONE,KEYSTONE PUBLIC SCHOOL,36.1280273,-96.257323
1590,TULSA,TULSA CHARTER: SCHL ARTS/SCI.,TULSA SCHL ARTS SCIENCES MS,36.1585896,-96.0056248
1591,TULSA,TULSA CHARTER: SCHL ARTS/SCI.,TULSA SCHL ARTS SCIENCES HS,36.1585896,-96.0056248
1592,TULSA,TULSA CHARTER: KIPP TULSA,KIPP TULSA ACAD. COLLEGE PREP.,36.1846927,-95.9679508
1593,TULSA,TULSA LEGACY CHARTER SCHL INC,TULSA LEGACY CHARTER SCHL INC,36.2456603,-95.9945776
1594,TULSA,TULSA CHARTER: COLLEGE BOUND,COLLEGE BOUND ACADEMY CHARTER,36.1259658,-95.8645302
1595,TULSA,TULSA CHARTER: HONOR ACADEMY,TULSA HONOR ACADEMY CHARTER,36.1259658,-95.8645302
1596,TULSA,TULSA CHARTER: COLLEGIATE HALL,COLLEGIATE HALL CHARTER SCHOOL,36.0816792,-95.9768963
1597,TULSA,DEBORAH BROWN (CHARTER),DEBORAH BROWN COMMUNITY SCHOOL,36.157102,-95.989613
1598,TULSA,DOVE SCHOOLS OF TULSA,DOVE SCH OF DISCOVERY ES TULSA,36.0936149,-95.8964863
1599,TULSA,DOVE SCHOOLS OF TULSA,DOVE SCIENCE ACADEMY TULSA JHS,36.1556719,-95.8872426
1600,TULSA,DOVE SCHOOLS OF TULSA,DOVE SCIENCE ACADEMY TULSA JHS,36.1556719,-95.8872426
1601,TULSA,DOVE SCHOOLS OF TULSA,DOVE SCIENCE ACADEMY TULSA HS,36.1556719,-95.8872426
1602,TULSA,DOVE SCHOOLS OF TULSA,DOVE SCIENCE ACADEMY TULSA HS,36.1556719,-95.8872426
1603,TULSA,SANKOFA MIDDLE SCHL (CHARTER),SANKOFA MIDDLE SCHOOL,36.1564449,-95.9907765
1604,TULSA,LANGSTON HUGHES ACAD ARTS-TECH,LANGSTON HUGHES ACAD ARTS-TECH,36.2504368,-95.9631865
1605,TULSA,TULSA,ACADEMY CENTRAL ES,36.1810429,-96.0127487
1606,TULSA,TULSA,ANDERSON ES,36.1959781,-95.964207
1607,TULSA,TULSA,HENRY ZARROW INTERNATIONAL SCH,36.1108755,-95.9116423
1608,TULSA,TULSA,BELL ES,36.1594653,-95.9068906
1609,TULSA,TULSA,BURROUGHS ES,36.1832823,-95.9950735
1610,TULSA,TULSA,CARNEGIE ES,36.0831656,-95.9288013
1611,TULSA,TULSA,CELIA CLINTON ES,36.180018,-95.9414267
1612,TULSA,TULSA,CHOUTEAU ES,36.1575313,-96.0398787
1613,TULSA,TULSA,COLUMBUS ES,36.1245989,-95.8581469
1614,TULSA,TULSA,COOPER ES,36.1363761,-95.8404939
1615,TULSA,TULSA,CLINTON WEST ES,36.1037745,-96.018286
1616,TULSA,TULSA,DUAL LANGUAGE ACADEMY,36.2235519,-95.9636799
1617,TULSA,TULSA,ECDC BUNCHE,36.2313358,-95.9935244
1618,TULSA,TULSA,EISENHOWER INTERNATIONAL ES,36.0835748,-95.943455
1619,TULSA,TULSA,ELIOT ES,36.111213,-95.9717746
1620,TULSA,TULSA,EMERSON ES,36.167648,-95.9949908
1621,TULSA,TULSA,EUGENE FIELD ES,36.1308145,-96.0047233
1622,TULSA,TULSA,GILCREASE ES,36.2339118,-95.9950302
1623,TULSA,TULSA,GRIMES ES,36.0831132,-95.9412187
1624,TULSA,TULSA,HAWTHORNE ES,36.2035203,-95.9766186
1625,TULSA,TULSA,HAMILTON ES,36.1873171,-95.9070243
1626,TULSA,TULSA,PATRICK HENRY ES,36.1036582,-95.9350396
1627,TULSA,TULSA,HOOVER ES,36.1296057,-95.9180101
1628,TULSA,TULSA,JACKSON ES,36.184802,-95.930553
1629,TULSA,TULSA,JONES ES,36.139979,-95.8964863
1630,TULSA,TULSA,KENDALL-WHITTIER ES,36.1537231,-95.9537695
1631,TULSA,TULSA,KERR ES,36.1570704,-95.847995
1632,TULSA,TULSA,KEY ES,36.0814772,-95.9120739
1633,TULSA,TULSA,LANIER ES,36.1358502,-95.9398564
1634,TULSA,TULSA,LEE ES,36.134625,-95.9836519
1635,TULSA,TULSA,LEWIS AND CLARK ES,36.1511829,-95.8502521
1636,TULSA,TULSA,LINDBERGH ES,36.1489043,-95.8763528
1637,TULSA,TULSA,MACARTHUR ES,36.1302636,-95.8963243
1638,TULSA,TULSA,MARSHALL ES,36.0816792,-95.9768963
1639,TULSA,TULSA,MAYO DEMONSTRATION ES,36.1471299,-95.9508314
1640,TULSA,TULSA,MCCLURE ES,36.0743652,-95.964356
1641,TULSA,TULSA,MCKINLEY ES,36.1689203,-95.9011657
1642,TULSA,TULSA,MITCHELL ES,36.1654467,-95.8948286
1643,TULSA,TULSA,OWEN ES,36.1707388,-95.9260813
1644,TULSA,TULSA,PEARY ES,36.1374166,-95.8555795
1645,TULSA,TULSA,PENN ES,36.2240251,-95.9612527
1646,TULSA,TULSA,ROBERTSON ES,36.0926813,-96.0234861
1647,TULSA,TULSA,SALK ES,36.081179,-95.8907763
1648,TULSA,TULSA,SEQUOYAH ES,36.1646923,-95.954405
1649,TULSA,TULSA,SKELLY ES,36.1204597,-95.8756949
1650,TULSA,TULSA,SPRINGDALE ES,36.1766059,-95.9552147
1651,TULSA,TULSA,PROJECT ACCEPT TRAICE ES,36.1585896,-96.0056248
1652,TULSA,TULSA,MARK TWAIN ES,36.1492188,-96.0394388
1653,TULSA,TULSA,WHITMAN ES,36.2106867,-95.9816504
1654,TULSA,TULSA,WRIGHT ES,36.097699,-95.9783687
1655,TULSA,TULSA,DISNEY ES,36.1271148,-95.844648
1656,TULSA,TULSA,GRISSOM ES,36.0665392,-95.8961426
1657,TULSA,TULSA,CARVER MS,36.175896,-95.985149
1658,TULSA,TULSA,DANIEL WEBSTER MS,36.1037745,-96.018286
1659,TULSA,TULSA,EDISON PREPARATORY MS,36.1038812,-95.9473001
1660,TULSA,TULSA,MONROE DEMONSTRATION MS,36.2235519,-95.9636799
1661,TULSA,TULSA,THOREAU DEMONSTRATION ACADEMY,36.0596915,-95.8926089
1662,TULSA,TULSA,TRAICE MS,36.2126224,-95.9500473
1663,TULSA,TULSA,CENTRAL JHS,36.162906,-96.0271166
1664,TULSA,TULSA,EAST CENTRAL JHS,36.134064,-95.8410708
1665,TULSA,TULSA,HALE JHS,36.1303674,-95.8992914
1666,TULSA,TULSA,MCLAIN JHS,36.2249116,-95.9732124
1667,TULSA,TULSA,MEMORIAL JHS,36.0822022,-95.8932367
1668,TULSA,TULSA,WILL ROGERS COLLEGE JHS,36.153701,-95.933252
1669,TULSA,TULSA,TULSA MET JHS,36.1846452,-95.9076349
1670,TULSA,TULSA,CENTRAL HS,36.162906,-96.0271166
1671,TULSA,TULSA,EAST CENTRAL HS,36.1470181,-95.8409273
1672,TULSA,TULSA,THOMAS EDISON PREPARATORY HS,36.1038812,-95.9473001
1673,TULSA,TULSA,NATHAN HALE HS,36.1324199,-95.8970628
1674,TULSA,TULSA,MCLAIN HS FOR SCIENCE AND TECH,36.2249116,-95.9732124
1675,TULSA,TULSA,MEMORIAL HS,36.0785181,-95.9143093
1676,TULSA,TULSA,WILL ROGERS COLLEGE HS,36.153701,-95.933252
1677,TULSA,TULSA,BOOKER T. WASHINGTON HS,36.1882748,-95.9707145
1678,TULSA,TULSA,DANIEL WEBSTER HS,36.1066611,-96.0141298
1679,TULSA,TULSA,TULSA MET HS,36.1846452,-95.9076349
1680,TULSA,TULSA,TRAICE,36.2126224,-95.9500473
1681,TULSA,TULSA,KIPP TULSA ACAD. COLLEGE PREP.,36.1846927,-95.9679508
1682,TULSA,TULSA,TULSA LEGACY CHARTER SCHL INC,36.2456603,-95.9945776
1683,TULSA,TULSA,COLLEGE BOUND ACADEMY CHARTER,36.1259658,-95.8645302
1684,TULSA,TULSA,TULSA HONOR ACADEMY CHARTER,36.1259658,-95.8645302
1685,TULSA,TULSA,COLLEGIATE HALL CHARTER SCHOOL,36.0791245,-95.9763593
1686,TULSA,TULSA,TULSA SCHL ARTS SCIENCES MS,36.1585896,-96.0056248
1687,TULSA,TULSA,TULSA SCHL ARTS SCIENCES HS,36.1585896,-96.0056248
1688,TULSA,SAND SPRINGS,SAND SPRINGS EC CTR,36.1396481,-96.1103739
1689,TULSA,SAND SPRINGS,ANGUS VALLEY ES,36.1396481,-96.1103739
1690,TULSA,SAND SPRINGS,NORTHWOODS FINE ARTS ACADEMY,36.1396481,-96.1103739
1691,TULSA,SAND SPRINGS,GARFIELD ES,36.1396481,-96.1103739
1692,TULSA,SAND SPRINGS,LIMESTONE ES,36.1396481,-96.1103739
1693,TULSA,SAND SPRINGS,PRATT ES,36.1396481,-96.1103739
1694,TULSA,SAND SPRINGS,CLYDE BOYD MS,36.1396481,-96.1103739
1695,TULSA,SAND SPRINGS,CENTRAL 9TH GRADE CTR,36.1396481,-96.1103739
1696,TULSA,SAND SPRINGS,CHARLES PAGE HS,36.1396481,-96.1103739
1697,TULSA,BROKEN ARROW,CREEKWOOD EARLY CHILDHOOD CTR,36.0745687,-95.772977
1698,TULSA,BROKEN ARROW,ARROW SPRINGS EARLY CHILDHOOD,36.0113673,-95.7896755
1699,TULSA,BROKEN ARROW,ARROW SPRINGS EARLY CHILDHOOD,36.0113673,-95.7896755
1700,TULSA,BROKEN ARROW,ASPEN CREEK EC CENTER,36.0028844,-95.7977965
1701,TULSA,BROKEN ARROW,PARKLANE EARLY CHILDHOOD CTR,36.052583,-95.716391
1702,TULSA,BROKEN ARROW,RHOADES ES,36.0587371,-95.7872893
1703,TULSA,BROKEN ARROW,ARROWHEAD ES,36.0658397,-95.8036668
1704,TULSA,BROKEN ARROW,VANDEVER ES,36.0250648,-95.8054736
1705,TULSA,BROKEN ARROW,HIGHLAND PARK ES,36.037653,-95.7007938
1706,TULSA,BROKEN ARROW,LYNN WOOD ES,36.0385064,-95.8077802
1707,TULSA,BROKEN ARROW,LEISURE PARK ES,36.0092255,-95.8053661
1708,TULSA,BROKEN ARROW,SPRING CREEK ES,35.9867274,-95.7862526
1709,TULSA,BROKEN ARROW,WOLF CREEK ES,36.0188934,-95.8256953
1710,TULSA,BROKEN ARROW,COUNTRY LANE PRIMARY ES,36.0889654,-95.7895411
1711,TULSA,BROKEN ARROW,LIBERTY ES,36.1001669,-95.7454405
1712,TULSA,BROKEN ARROW,COUNTRY LANE INTERMEDIATE ES,36.0899798,-95.7889671
1713,TULSA,BROKEN ARROW,CREEKWOOD ES,36.073712,-95.7730953
1714,TULSA,BROKEN ARROW,ASPEN CREEK ES,36.0065836,-95.8219432
1715,TULSA,BROKEN ARROW,OAK CREST ES,36.0367155,-95.7876966
1716,TULSA,BROKEN ARROW,TIMBER RIDGE ES,36.0607963,-95.7490253
1717,TULSA,BROKEN ARROW,CENTENNIAL MS,36.0899798,-95.7889671
1718,TULSA,BROKEN ARROW,SEQUOYAH MS,36.0240901,-95.7952112
1719,TULSA,BROKEN ARROW,CHILDERS MS,35.9873738,-95.785557
1720,TULSA,BROKEN ARROW,OLIVER MS,36.018616,-95.8269498
1721,TULSA,BROKEN ARROW,ONETA RIDGE MS,36.0373863,-95.7047515
1722,TULSA,BROKEN ARROW,BROKEN ARROW FRESHMAN ACADEMY,36.0164967,-95.7896417
1723,TULSA,BROKEN ARROW,BROKEN ARROW HS,36.0739944,-95.7655784
1724,TULSA,BIXBY,CENTRAL ES,35.9396893,-95.8800295
1725,TULSA,BIXBY,BIXBY NORTH ES,35.9905462,-95.8983014
1726,TULSA,BIXBY,NORTH INTERMEDIATE SCHOOL,35.990206,-95.899859
1727,TULSA,BIXBY,CENTRAL INTERMEDIATE SCHOOL,35.9305189,-95.8748286
1728,TULSA,BIXBY,NORTHEAST ES AND IS,35.9748106,-95.844006
1729,TULSA,BIXBY,BIXBY MS,35.9305189,-95.8748286
1730,TULSA,BIXBY,BIXBY HS,35.934935,-95.874322
1731,TULSA,JENKS,JENKS EAST ES,36.0265119,-95.969335
1732,TULSA,JENKS,JENKS WEST ES,36.0265119,-95.969335
1733,TULSA,JENKS,SOUTHEAST ES,36.0265119,-95.969335
1734,TULSA,JENKS,JENKS WEST INTERMEDIATE ES,36.0265119,-95.969335
1735,TULSA,JENKS,JENKS EAST INTERMEDIATE ES,36.0265119,-95.969335
1736,TULSA,JENKS,NORTHWEST ES,36.0265119,-95.969335
1737,TULSA,JENKS,JENKS MS,36.0265119,-95.969335
1738,TULSA,JENKS,JENKS HS,36.0265119,-95.969335
1739,TULSA,COLLINSVILLE,COLLINSVILLE EC CTR,36.3691384,-95.84876
1740,TULSA,COLLINSVILLE,HERALD ES,36.3691384,-95.84876
1741,TULSA,COLLINSVILLE,COLLINSVILLE UPPER ES,36.3691384,-95.84876
1742,TULSA,COLLINSVILLE,COLLINSVILLE 6TH GRADE CENTER,36.3691384,-95.84876
1743,TULSA,COLLINSVILLE,COLLINSVILLE MS,36.3691384,-95.84876
1744,TULSA,COLLINSVILLE,COLLINSVILLE HS,36.3691384,-95.84876
1745,TULSA,SKIATOOK,MARRS ES,36.3672973,-96.000915
1746,TULSA,SKIATOOK,SKIATOOK INTERMEDIATE ES,36.3672973,-96.000915
1747,TULSA,SKIATOOK,SKIATOOK ES,36.3672973,-96.000915
1748,TULSA,SKIATOOK,NEWMAN MS,36.3672973,-96.000915
1749,TULSA,SKIATOOK,SKIATOOK HS,36.3672973,-96.000915
1750,TULSA,SPERRY,SPERRY ES,36.2977535,-95.9974822
1751,TULSA,SPERRY,SPERRY MS,36.2977535,-95.9974822
1752,TULSA,SPERRY,SPERRY HS,36.2977535,-95.9974822
1753,TULSA,UNION,GROVE ES,36.0747557,-95.8823739
1754,TULSA,UNION,BOEVERS ES,36.0747557,-95.8823739
1755,TULSA,UNION,CLARK ES,36.0747557,-95.8823739
1756,TULSA,UNION,DARNABY ES,36.0747557,-95.8823739
1757,TULSA,UNION,PETERS ES,36.0747557,-95.8823739
1758,TULSA,UNION,ANDERSEN ES,36.0747557,-95.8823739
1759,TULSA,UNION,MCAULIFFE ES,36.0747557,-95.8823739
1760,TULSA,UNION,JARMAN ES,36.0747557,-95.8823739
1761,TULSA,UNION,CEDAR RIDGE ES,36.0747557,-95.8823739
1762,TULSA,UNION,MARSHALL T. MOORE ES,36.0747557,-95.8823739
1763,TULSA,UNION,ROSA PARKS ES,36.0747557,-95.8823739
1764,TULSA,UNION,THOMAS JEFFERSON ES,36.0747557,-95.8823739
1765,TULSA,UNION,ELLEN OCHOA ES,36.0747557,-95.8823739
1766,TULSA,UNION,UNION 6TH-7TH GRADE CTR,36.0747557,-95.8823739
1767,TULSA,UNION,UNION 8TH GRADE CTR,36.0747557,-95.8823739
1768,TULSA,UNION,UNION HS,36.0747557,-95.8823739
1769,TULSA,UNION,UNION HS,36.0747557,-95.8823739
1770,TULSA,UNION,UNION HS,36.0747557,-95.8823739
1771,TULSA,UNION,UNION NINTH GRADE CENTER,36.0747557,-95.8823739
1772,TULSA,BERRYHILL,BERRYHILL ES SOUTH,36.1182481,-96.0641964
1773,TULSA,BERRYHILL,BERRYHILL MS,36.1182481,-96.0641964
1774,TULSA,BERRYHILL,BERRYHILL HS,36.1182481,-96.0641964
1775,TULSA,OWASSO,BARNES ES,36.2818489,-95.8533954
1776,TULSA,OWASSO,ATOR ES,36.2818489,-95.8533954
1777,TULSA,OWASSO,MILLS ES,36.2818489,-95.8533954
1778,TULSA,OWASSO,HAYWARD SMITH ES,36.2818489,-95.8533954
1779,TULSA,OWASSO,PAMELA HODSON ES,36.2818489,-95.8533954
1780,TULSA,OWASSO,LARKIN BAILEY ES,36.2818489,-95.8533954
1781,TULSA,OWASSO,NORTHEAST ES,36.2818489,-95.8533954
1782,TULSA,OWASSO,STONE CANYON ES,36.2818489,-95.8533954
1783,TULSA,OWASSO,OWASSO 7TH GRADE CTR,36.2818489,-95.8533954
1784,TULSA,OWASSO,OWASSO 6TH GRADE CTR,36.2818489,-95.8533954
1785,TULSA,OWASSO,OWASSO 8TH GRADE CTR,36.2818489,-95.8533954
1786,TULSA,OWASSO,OWASSO HS,36.2818489,-95.8533954
1787,TULSA,GLENPOOL,GLENPOOL ES,35.9586079,-96.0075273
1788,TULSA,GLENPOOL,GLENPOOL MS,35.9586079,-96.0075273
1789,TULSA,GLENPOOL,GLENPOOL HS,35.9586079,-96.0075273
1790,TULSA,LIBERTY,LIBERTY ES,35.872101,-95.954806
1791,TULSA,LIBERTY,LIBERTY HS,35.872101,-95.954806
1792,WAGONER,OKAY,OKAY ES,35.8509895,-95.3207168
1793,WAGONER,OKAY,OKAY HS,35.8509895,-95.3207168
1794,WAGONER,COWETA,CENTRAL ES,35.9512193,-95.6524496
1795,WAGONER,COWETA,NORTHWEST ES,35.9512193,-95.6524496
1796,WAGONER,COWETA,SOUTHSIDE ES,35.9512193,-95.6524496
1797,WAGONER,COWETA,MISSION INTERMEDIATE GRD CTR,35.9512193,-95.6524496
1798,WAGONER,COWETA,HERITAGE INTERMEDIATE GRD CTR,35.9512193,-95.6524496
1799,WAGONER,COWETA,DONALD P SLOAT JHS,35.9512193,-95.6524496
1800,WAGONER,COWETA,COWETA HS,35.9512193,-95.6524496
1801,WAGONER,COWETA,COWETA INTERMEDIATE HS,35.9512193,-95.6524496
1802,WAGONER,WAGONER,WILLIAM R. TEAGUE ES,35.9655189,-95.3653079
1803,WAGONER,WAGONER,ELLINGTON ES,35.9537556,-95.3693991
1804,WAGONER,WAGONER,CENTRAL INTERMEDIATE ES,35.9610357,-95.3746367
1805,WAGONER,WAGONER,WAGONER MS,35.9634645,-95.3584179
1806,WAGONER,WAGONER,WAGONER HS,35.9610913,-95.3597025
1807,WAGONER,PORTER CONSOLIDATED,PORTER CONSOLIDATED ES,35.8664133,-95.5228258
1808,WAGONER,PORTER CONSOLIDATED,PORTER CONSOLIDATED HS,35.8664133,-95.5228258
1809,WASHINGTON,COPAN,COPAN ES,36.895946,-95.9263937
1810,WASHINGTON,COPAN,COPAN HS,36.895946,-95.9263937
1811,WASHINGTON,DEWEY,DEWEY ES,36.8035424,-95.9369283
1812,WASHINGTON,DEWEY,DEWEY MS,36.8035424,-95.9369283
1813,WASHINGTON,DEWEY,DEWEY HS,36.8035424,-95.9369283
1814,WASHINGTON,CANEY VALLEY,CANEY VALLEY ES,36.6004284,-95.9841961
1815,WASHINGTON,CANEY VALLEY,CANEY VALLEY MS,36.5320451,-95.9267881
1816,WASHINGTON,CANEY VALLEY,CANEY VALLEY HS,36.5320451,-95.9267881
1817,WASHINGTON,BARTLESVILLE,RICHARD KANE ES,36.7409096,-95.9697194
1818,WASHINGTON,BARTLESVILLE,HOOVER ES,36.7502548,-95.917225
1819,WASHINGTON,BARTLESVILLE,JANE PHILLIPS ES,36.7356331,-95.9907765
1820,WASHINGTON,BARTLESVILLE,RANCH HEIGHTS ES,36.7338155,-95.9205122
1821,WASHINGTON,BARTLESVILLE,WAYSIDE ES,36.718768,-95.944253
1822,WASHINGTON,BARTLESVILLE,WOODROW WILSON ES,36.7596518,-95.9232227
1823,WASHINGTON,BARTLESVILLE,CENTRAL MS,36.744336,-95.9739124
1824,WASHINGTON,BARTLESVILLE,MADISON MS,36.7486094,-95.9107607
1825,WASHINGTON,BARTLESVILLE,BARTLESVILLE HS,36.7330996,-95.9728108
1826,WASHITA,SENTINEL,MCMURRAY ES,35.1581101,-99.1751234
1827,WASHITA,SENTINEL,BLANCHE THOMAS HS,35.1581101,-99.1751234
1828,WASHITA,BURNS FLAT-DILL CITY,WILL ROGERS ES,35.3557537,-99.1707087
1829,WASHITA,BURNS FLAT-DILL CITY,BURNS FLAT-DILL CITY HS,35.3557537,-99.1707087
1830,WASHITA,CANUTE,CANUTE ES,35.4222953,-99.275001
1831,WASHITA,CANUTE,CANUTE HS,35.4222953,-99.275001
1832,WASHITA,CORDELL,CORDELL ES,35.2926141,-98.9893001
1833,WASHITA,CORDELL,CORDELL JHS,35.2926141,-98.9893001
1834,WASHITA,CORDELL,CORDELL HS,35.2926141,-98.9893001
1835,WOODS,ALVA,LINCOLN ES,36.7906711,-98.66788
1836,WOODS,ALVA,LONGFELLOW ES,36.8033745,-98.6580389
1837,WOODS,ALVA,WASHINGTON ES,36.8035487,-98.6492826
1838,WOODS,ALVA,ALVA MS,36.8054894,-98.6708024
1839,WOODS,ALVA,ALVA HS,36.8004474,-98.6797921
1840,WOODS,WAYNOKA,WAYNOKA ES,36.5798033,-98.8712642
1841,WOODS,WAYNOKA,WAYNOKA HS,36.5798033,-98.8712642
1842,WOODS,FREEDOM,FREEDOM ES,36.7688748,-99.1147363
1843,WOODS,FREEDOM,FREEDOM HS,36.7688748,-99.1147363
1844,WOODWARD,WOODWARD,CEDAR HEIGHTS ES,36.4260223,-99.3905541
1845,WOODWARD,WOODWARD,HORACE MANN ES,36.4260223,-99.3905541
1846,WOODWARD,WOODWARD,WOODWARD EC CTR,36.4260223,-99.3905541
1847,WOODWARD,WOODWARD,HIGHLAND PARK ES,36.4260223,-99.3905541
1848,WOODWARD,WOODWARD,WOODWARD MS SOUTH CAMPUS,36.4260223,-99.3905541
1849,WOODWARD,WOODWARD,WOODWARD MS NORTH CAMPUS,36.4260223,-99.3905541
1850,WOODWARD,WOODWARD,WOODWARD HS,36.4260223,-99.3905541
1851,WOODWARD,MOORELAND,MOORELAND ES,36.4378629,-99.204534
1852,WOODWARD,MOORELAND,MOORELAND HS,36.4378629,-99.204534
1853,WOODWARD,SHARON-MUTUAL,SHARON-MUTUAL ES,36.2748993,-99.3379084
1854,WOODWARD,SHARON-MUTUAL,SHARON-MUTUAL HS,36.2296685,-99.1714588
1855,WOODWARD,FORT SUPPLY,FORT SUPPLY ES,36.5716011,-99.5706703
1856,WOODWARD,FORT SUPPLY,FORT SUPPLY HS,36.5716011,-99.5706703